{"type":"FeatureCollection","features":[{"type":"Feature","properties":{"depth":-50},"geometry":{"type":"MultiLineString","coordinates":[[[13.0248,44.2],[13.026,44.2021],[13.0348,44.2135],[13.0351,44.2177],[13.0324,44.2281],[13.0324,44.2344],[13.0343,44.2385],[13.0406,44.2464],[13.051,44.2554],[13.0677,44.2727],[13.076,44.2823],[13.0844,44.29],[13.101,44.2983],[13.1079,44.3031],[13.1219,44.3177],[13.1265,44.3281],[13.1306,44.3427],[13.1365,44.3509],[13.154,44.3656],[13.1715,44.374],[13.1927,44.3813],[13.2031,44.3833],[13.2177,44.3846],[13.2344,44.3836],[13.2487,44.3844],[13.2552,44.3859],[13.2615,44.3906],[13.2677,44.4029],[13.2702,44.4115],[13.2803,44.4323],[13.2888,44.4448],[13.2927,44.4484],[13.301,44.4497],[13.3219,44.4466],[13.3281,44.4443],[13.3427,44.4342],[13.3483,44.4281],[13.3531,44.4251],[13.3615,44.4242],[13.374,44.4269],[13.3784,44.4302],[13.3781,44.4386],[13.3802,44.4412],[13.3885,44.4428],[13.399,44.4416],[13.4094,44.4432],[13.4156,44.4404],[13.4198,44.4411],[13.4281,44.4459],[13.449,44.4453],[13.4564,44.4469],[13.4666,44.4531],[13.46,44.4615],[13.4607,44.4656],[13.4656,44.4685],[13.4698,44.4684],[13.4844,44.4625],[13.4948,44.4572],[13.502,44.4594],[13.5019,44.4635],[13.4947,44.4677],[13.4969,44.4712],[13.5032,44.4698],[13.5135,44.4619],[13.524,44.4604],[13.5281,44.4618],[13.5344,44.4718],[13.5406,44.4727],[13.5552,44.4693],[13.576,44.4681],[13.5823,44.4651],[13.5927,44.4646],[13.6052,44.4664],[13.6177,44.463],[13.6281,44.4625],[13.6406,44.4645],[13.649,44.4635],[13.6615,44.4597],[13.6635,44.458],[13.6719,44.4385],[13.676,44.4347],[13.6802,44.4336],[13.6906,44.4357],[13.7031,44.4411],[13.709,44.4469],[13.7109,44.451],[13.7083,44.4552],[13.699,44.4597],[13.6828,44.4698],[13.6797,44.476],[13.6828,44.4844],[13.6909,44.4948],[13.701,44.5012],[13.7052,44.501],[13.7135,44.4979],[13.724,44.4889],[13.7325,44.4781],[13.7385,44.4658],[13.7427,44.4626],[13.7615,44.4653],[13.7677,44.4596],[13.776,44.4583],[13.7906,44.4532],[13.8073,44.4521],[13.8198,44.4546],[13.8277,44.4594],[13.8365,44.4626],[13.8427,44.4611],[13.8594,44.4594],[13.8661,44.4615],[13.8688,44.4677],[13.876,44.4695],[13.8906,44.4657],[13.9094,44.4578],[13.9219,44.4515],[13.9315,44.451],[13.9385,44.4568],[13.9594,44.4619],[13.9662,44.4677],[13.9885,44.4804],[13.9948,44.4812],[14.0135,44.4812],[14.0177,44.4818],[14.0302,44.4878],[14.0406,44.4895],[14.0469,44.489],[14.0628,44.4823],[14.0698,44.4743],[14.0823,44.4689],[14.0906,44.4686],[14.099,44.465],[14.1031,44.4646],[14.1198,44.4652],[14.1302,44.4702],[14.1365,44.4755],[14.1427,44.4776],[14.1506,44.4844],[14.152,44.4885],[14.1515,44.4948],[14.1485,44.501],[14.1481,44.5094],[14.1494,44.5135],[14.1573,44.5219],[14.1597,44.526],[14.1596,44.5302],[14.1552,44.5427],[14.1552,44.5469],[14.1594,44.5485],[14.1698,44.5399],[14.1781,44.5363],[14.1885,44.5374],[14.1969,44.5346],[14.2052,44.5263],[14.2091,44.5177],[14.2146,44.499],[14.2198,44.4908],[14.2323,44.486],[14.2406,44.4855],[14.2477,44.4885],[14.2496,44.4969],[14.2552,44.5064],[14.2594,44.5077],[14.2677,44.5033],[14.272,44.499],[14.2802,44.4853],[14.2906,44.4773],[14.3031,44.4728],[14.3177,44.4715],[14.3281,44.4759],[14.3427,44.4771],[14.3531,44.4765],[14.3573,44.4785],[14.374,44.4928],[14.3781,44.4919],[14.3865,44.4858],[14.3948,44.4776],[14.4052,44.4769],[14.4135,44.4735],[14.424,44.4714],[14.4327,44.4719],[14.4385,44.4737],[14.4413,44.4677],[14.4469,44.46],[14.4498,44.449],[14.4527,44.4448],[14.4698,44.4358],[14.474,44.4353],[14.4823,44.4429],[14.4846,44.4469],[14.4842,44.451],[14.4785,44.4552],[14.4677,44.4599],[14.4615,44.4663],[14.449,44.4683],[14.4458,44.4698],[14.4396,44.476],[14.4396,44.4885],[14.4377,44.4948],[14.426,44.5009],[14.4221,44.5073],[14.4219,44.5136],[14.426,44.5141],[14.44,44.5031],[14.4448,44.4976],[14.449,44.4954],[14.4573,44.4948],[14.4659,44.4906],[14.4711,44.4844],[14.492,44.4698],[14.4971,44.4635],[14.4995,44.4552],[14.5031,44.4491],[14.5053,44.4406],[14.5044,44.4365],[14.4997,44.4323],[14.4964,44.426],[14.4987,44.4094],[14.501,44.4052],[14.5052,44.4043],[14.5198,44.4104],[14.5323,44.41],[14.5573,44.4015],[14.5635,44.3975],[14.5698,44.3956],[14.5802,44.4001],[14.5906,44.3996],[14.601,44.3954],[14.6094,44.3936],[14.6219,44.3929],[14.6323,44.3944],[14.6406,44.3922],[14.6502,44.3781],[14.6573,44.373],[14.6673,44.3677],[14.6708,44.3594],[14.6677,44.351],[14.6615,44.3439],[14.6552,44.3437],[14.639,44.3552],[14.6344,44.3597],[14.6281,44.361],[14.6177,44.3612],[14.5927,44.3676],[14.5885,44.3695],[14.5758,44.3802],[14.5698,44.3809],[14.5532,44.374],[14.5512,44.3677],[14.5508,44.3573],[14.5534,44.349],[14.5635,44.3401],[14.568,44.3323],[14.5768,44.3219],[14.5906,44.3125],[14.6073,44.3068],[14.6344,44.2934],[14.6576,44.2865],[14.6604,44.2844],[14.6644,44.274],[14.6677,44.2694],[14.674,44.2674],[14.6844,44.2666],[14.7062,44.2573],[14.7156,44.2514],[14.7231,44.2385],[14.726,44.2321],[14.7302,44.2275],[14.7427,44.2196],[14.7531,44.2092],[14.7594,44.2066],[14.7698,44.2083],[14.7823,44.2133],[14.7885,44.2105],[14.799,44.213],[14.8052,44.2179],[14.8156,44.2127],[14.8242,44.2031],[14.8282,44.2]]]}},{"type":"Feature","properties":{"depth":-50},"geometry":{"type":"MultiLineString","coordinates":[[[14.471,44.8061],[14.47,44.8156],[14.4671,44.826],[14.4647,44.8406],[14.458,44.8552],[14.4536,44.8698],[14.4526,44.8823],[14.4543,44.8885],[14.4594,44.8928],[14.4646,44.901],[14.4692,44.9219],[14.4727,44.9281],[14.4723,44.9323],[14.4745,44.9385],[14.4844,44.9416],[14.4885,44.9452],[14.4911,44.9531],[14.4873,44.9615],[14.4858,44.9698],[14.4885,44.9713],[14.4969,44.9681],[14.5074,44.9594],[14.5133,44.949],[14.5323,44.94],[14.5385,44.9387],[14.5531,44.9401],[14.5677,44.9362],[14.5719,44.9327],[14.5802,44.9308],[14.5899,44.9344],[14.5932,44.9385],[14.5973,44.949],[14.6031,44.9572],[14.6073,44.9604],[14.6135,44.9617],[14.626,44.959],[14.6427,44.9482],[14.6555,44.9448],[14.6612,44.9344],[14.6698,44.9265],[14.6823,44.9249],[14.6927,44.9286],[14.7052,44.9282],[14.724,44.9235],[14.7344,44.9194],[14.749,44.9174],[14.7558,44.9094],[14.77,44.899],[14.7781,44.8921],[14.7844,44.8895],[14.7948,44.8872],[14.8073,44.8801],[14.8344,44.8728],[14.849,44.8748],[14.853,44.8823],[14.8521,44.8906],[14.8468,44.9031],[14.8406,44.9135],[14.8281,44.926],[14.8198,44.9319],[14.8094,44.9373],[14.799,44.9391],[14.7823,44.9437],[14.7777,44.9469],[14.7802,44.9514],[14.7844,44.9514],[14.8073,44.9477],[14.8177,44.9501],[14.826,44.9562],[14.8327,44.9635],[14.8346,44.9677],[14.836,44.9781],[14.8375,44.9802],[14.8448,44.9827],[14.8497,44.9865],[14.8506,44.9906],[14.8478,44.999],[14.8427,45.0036],[14.8385,45.0052],[14.8219,45.0064],[14.8135,45.0056],[14.8006,45.0073],[14.7865,45.0111],[14.7719,45.0176],[14.7635,45.0259],[14.7573,45.0301],[14.751,45.0388],[14.7492,45.0448],[14.7494,45.0531],[14.7431,45.0635],[14.7434,45.0719],[14.7365,45.0772],[14.7281,45.0767],[14.7135,45.0804],[14.7052,45.077],[14.701,45.0766],[14.6946,45.0802],[14.6881,45.0865],[14.6823,45.1027],[14.6818,45.1135],[14.6874,45.124],[14.6897,45.1323],[14.6898,45.1406],[14.6881,45.151],[14.6927,45.1546],[14.701,45.1523],[14.7073,45.1452],[14.7198,45.14],[14.726,45.1383],[14.7344,45.1338],[14.7385,45.1294],[14.7427,45.1277],[14.749,45.1282],[14.7594,45.1232],[14.7781,45.1201],[14.8115,45.1061],[14.8219,45.1051],[14.8302,45.0995],[14.8357,45.0885],[14.8404,45.0844],[14.8471,45.076],[14.8498,45.0656],[14.8615,45.0479],[14.8646,45.0385],[14.8626,45.0302],[14.863,45.026],[14.8708,45.0073],[14.8788,44.9969],[14.8804,44.9927],[14.8791,44.9823],[14.8844,44.974],[14.8927,44.9693],[14.901,44.966],[14.9072,44.9594],[14.9078,44.951],[14.9056,44.9406],[14.8979,44.9219],[14.8901,44.9073],[14.8858,44.8927],[14.8789,44.8802],[14.8732,44.8615],[14.8706,44.8469],[14.8702,44.8344],[14.8679,44.824],[14.8682,44.8156],[14.8707,44.799],[14.8707,44.7844],[14.8749,44.7698],[14.8755,44.7573],[14.8815,44.7469],[14.8838,44.7385],[14.8831,44.7344],[14.8781,44.7281],[14.8698,44.7356],[14.8628,44.749],[14.8531,44.7562],[14.8427,44.7671],[14.8323,44.7702],[14.8281,44.7725],[14.8094,44.788],[14.7906,44.801],[14.7803,44.8094],[14.7749,44.8156],[14.7749,44.824],[14.7802,44.8306],[14.7844,44.8327],[14.7885,44.8317],[14.7969,44.8247],[14.8073,44.819],[14.8156,44.8121],[14.8219,44.8086],[14.8302,44.8092],[14.8344,44.8117],[14.8482,44.826],[14.8513,44.8302],[14.8532,44.8385],[14.8517,44.8531],[14.849,44.8567],[14.8281,44.8606],[14.8177,44.8605],[14.8094,44.8627],[14.799,44.8639],[14.7948,44.8661],[14.7823,44.8787],[14.7744,44.8823],[14.749,44.8983],[14.7448,44.8992],[14.7385,44.8953],[14.7325,44.8885],[14.7243,44.8823],[14.719,44.8719],[14.7156,44.8677],[14.7052,44.862],[14.699,44.8597],[14.6906,44.8604],[14.6781,44.8636],[14.6696,44.8677],[14.6615,44.8781],[14.6573,44.8813],[14.6427,44.8883],[14.6385,44.888],[14.6342,44.8844],[14.6366,44.8802],[14.6502,44.8677],[14.6533,44.8635],[14.658,44.851],[14.6607,44.8406],[14.6691,44.824],[14.668,44.8198],[14.6594,44.8136],[14.6461,44.799],[14.6431,44.7927],[14.643,44.7865],[14.6469,44.7802],[14.654,44.7719],[14.6608,44.7615],[14.6656,44.757],[14.6781,44.7498],[14.6948,44.7447],[14.7031,44.7436],[14.726,44.7437],[14.7323,44.7432],[14.7531,44.7379],[14.7632,44.7302],[14.7802,44.7193],[14.7948,44.7079],[14.8031,44.6972],[14.8122,44.6885],[14.8168,44.6823],[14.8219,44.6781],[14.8302,44.6742],[14.8344,44.6736],[14.849,44.6746],[14.8548,44.6781],[14.8594,44.6841],[14.8635,44.6863],[14.874,44.6893],[14.8823,44.696],[14.8935,44.6802],[14.8957,44.6698],[14.8989,44.6656],[14.9094,44.6606],[14.924,44.6379],[14.9316,44.6302],[14.9416,44.6219],[14.9465,44.6135],[14.9531,44.6074],[14.9557,44.6031],[14.9552,44.596],[14.949,44.5962],[14.9451,44.601],[14.9436,44.6073],[14.9385,44.6111],[14.9302,44.6133],[14.9219,44.6211],[14.9115,44.6238],[14.899,44.623],[14.8823,44.6252],[14.874,44.6239],[14.8594,44.6198],[14.851,44.6233],[14.8281,44.6397],[14.8142,44.6531],[14.7917,44.674],[14.7804,44.6865],[14.7677,44.6971],[14.7516,44.7073],[14.7448,44.7129],[14.7365,44.716],[14.7302,44.7154],[14.7177,44.716],[14.7073,44.7107],[14.7031,44.7065],[14.699,44.7056],[14.6865,44.7113],[14.6795,44.7177],[14.6759,44.724],[14.6705,44.7302],[14.6652,44.7344],[14.6552,44.7389],[14.65,44.7469],[14.6427,44.7503],[14.6302,44.749],[14.6275,44.7448],[14.6286,44.7385],[14.6329,44.7323],[14.6406,44.7279],[14.6438,44.724],[14.6465,44.7156],[14.6531,44.7059],[14.6598,44.699],[14.6732,44.6802],[14.6844,44.673],[14.6969,44.6698],[14.6997,44.6677],[14.703,44.6573],[14.7061,44.6531],[14.7135,44.6471],[14.7219,44.6441],[14.726,44.645],[14.7281,44.649],[14.7247,44.6552],[14.7056,44.6698],[14.7046,44.676],[14.7058,44.6844],[14.7094,44.6945],[14.7156,44.6944],[14.7205,44.6885],[14.7252,44.6802],[14.7331,44.6719],[14.7442,44.6552],[14.7594,44.6464],[14.763,44.6427],[14.7666,44.6302],[14.7688,44.626],[14.774,44.6214],[14.7865,44.615],[14.799,44.6026],[14.8052,44.5979],[14.8173,44.5865],[14.8247,44.574],[14.8244,44.5698],[14.8196,44.5594],[14.8202,44.551],[14.8228,44.5469],[14.8365,44.5367],[14.8421,44.526],[14.8469,44.5205],[14.8574,44.5156],[14.8597,44.5094],[14.8552,44.5052],[14.8448,44.5011],[14.8384,44.4969],[14.8363,44.4927],[14.8365,44.476],[14.8393,44.4677],[14.8469,44.4611],[14.8615,44.4568],[14.8656,44.4544],[14.8719,44.4464],[14.8778,44.4406],[14.8885,44.4245],[14.8927,44.4227],[14.9073,44.4199],[14.9115,44.4174],[14.9198,44.4047],[14.9281,44.3976],[14.9344,44.3942],[14.9469,44.3907],[14.9594,44.3847],[14.9823,44.3792],[15.0135,44.3793],[15.024,44.3773],[15.0323,44.3767],[15.0385,44.3744],[15.051,44.3722],[15.062,44.3656],[15.0653,44.3594],[15.0668,44.351],[15.0659,44.3469],[15.0615,44.3468],[15.0552,44.3504],[15.0427,44.3516],[15.0323,44.356],[15.026,44.3569],[15.0102,44.3531],[15.0039,44.349],[15.0042,44.3302],[15.0022,44.3135],[15.0034,44.3073],[15.0062,44.301],[15.0072,44.2948],[15.0034,44.2865],[14.999,44.286],[14.9865,44.2875],[14.9802,44.285],[14.9752,44.2781],[14.9743,44.2656],[14.9769,44.2573],[14.9831,44.251],[14.9884,44.2427],[14.9868,44.2365],[14.9781,44.2304],[14.9709,44.224],[14.9628,44.2115],[14.9516,44.2094],[14.9406,44.2091],[14.9344,44.2077],[14.9334,44.2135],[14.9423,44.2156],[14.9432,44.2198],[14.9344,44.2311],[14.9219,44.2357],[14.9135,44.2353],[14.899,44.2414],[14.8927,44.2409],[14.8851,44.2448],[14.8948,44.2508],[14.8979,44.2594],[14.887,44.276],[14.8883,44.2823],[14.897,44.2885],[14.9007,44.2948],[14.8981,44.3031],[14.8927,44.3073],[14.874,44.3147],[14.8572,44.326],[14.8545,44.3302],[14.8515,44.3406],[14.8531,44.3427],[14.8677,44.3438],[14.8802,44.3456],[14.8885,44.3487],[14.8925,44.3531],[14.8935,44.3573],[14.8913,44.3698],[14.8865,44.3754],[14.8781,44.3815],[14.874,44.387],[14.8701,44.3948],[14.8656,44.3993],[14.8615,44.4012],[14.8469,44.4026],[14.8365,44.407],[14.8317,44.4115],[14.8281,44.4177],[14.8219,44.422],[14.8115,44.4258],[14.7969,44.4322],[14.7844,44.4363],[14.7802,44.4368],[14.7656,44.4356],[14.7594,44.4371],[14.7469,44.4455],[14.7344,44.4519],[14.724,44.4609],[14.7177,44.4628],[14.701,44.4614],[14.6927,44.4625],[14.6865,44.4646],[14.6828,44.4677],[14.6781,44.4758],[14.6719,44.4804],[14.6694,44.4844],[14.6656,44.4948],[14.6594,44.5022],[14.6531,44.5055],[14.6498,44.5115],[14.6444,44.526],[14.6353,44.5385],[14.6311,44.549],[14.6281,44.5533],[14.6219,44.5574],[14.6094,44.5589],[14.6052,44.5604],[14.5958,44.5698],[14.5895,44.5781],[14.5847,44.5885],[14.5802,44.5923],[14.5677,44.5999],[14.5598,44.6094],[14.5592,44.6135],[14.5608,44.6281],[14.5608,44.6448],[14.5596,44.649],[14.5552,44.6551],[14.5344,44.6636],[14.5243,44.6719],[14.5135,44.6885],[14.5129,44.6927],[14.5148,44.699],[14.514,44.7073],[14.5116,44.7115],[14.4994,44.7177],[14.4954,44.726],[14.4851,44.7344],[14.4836,44.7531],[14.4827,44.7573],[14.4744,44.7698],[14.4719,44.7781],[14.4752,44.7844],[14.4755,44.7885],[14.473,44.7948],[14.4714,44.8047]]]}},{"type":"Feature","properties":{"depth":-50},"geometry":{"type":"MultiLineString","coordinates":[[[14.4695,44.9823],[14.4656,44.985],[14.451,44.9859],[14.4406,44.9827],[14.4323,44.9885],[14.424,44.993],[14.4183,45.001],[14.4115,45.0084],[14.3995,45.026],[14.3953,45.0365],[14.3801,45.0594],[14.378,45.0719],[14.3789,45.076],[14.3769,45.0802],[14.3673,45.0885],[14.3654,45.0927],[14.3634,45.1031],[14.3636,45.1073],[14.3665,45.1135],[14.3679,45.124],[14.3673,45.1302],[14.3693,45.1344],[14.374,45.1387],[14.3769,45.1448],[14.3741,45.151],[14.3751,45.1573],[14.3727,45.1615],[14.3677,45.1651],[14.3597,45.174],[14.3427,45.18],[14.3219,45.182],[14.3094,45.1774],[14.2997,45.1698],[14.2913,45.1594],[14.2921,45.1531],[14.2695,45.126],[14.2676,45.1198],[14.27,45.1115],[14.2701,45.101],[14.2725,45.0927],[14.2781,45.0897],[14.2865,45.0881],[14.2888,45.0823],[14.2947,45.074],[14.2953,45.0677],[14.299,45.063],[14.3128,45.0552],[14.3177,45.0485],[14.324,45.0466],[14.3365,45.0477],[14.3427,45.0427],[14.349,45.0303],[14.3485,45.026],[14.3417,45.0135],[14.3416,45.0031],[14.3469,44.985],[14.3594,44.9828],[14.3698,44.9828],[14.3719,44.9816],[14.3755,44.9719],[14.3824,44.9635],[14.3802,44.9526],[14.376,44.9456],[14.3705,44.9406],[14.3719,44.9385],[14.3823,44.9307],[14.3885,44.9209],[14.3885,44.9133],[14.3844,44.9117],[14.3719,44.9167],[14.3656,44.9166],[14.3594,44.921],[14.3526,44.9219],[14.3494,44.924],[14.3472,44.9302],[14.338,44.9469],[14.3256,44.9552],[14.326,44.9615],[14.3198,44.9641],[14.3156,44.9678],[14.3115,44.968],[14.3057,44.9573],[14.3035,44.951],[14.2969,44.9438],[14.2905,44.9406],[14.2905,44.9365],[14.2781,44.9287],[14.2748,44.924],[14.2754,44.9198],[14.2802,44.9129],[14.2885,44.9093],[14.2929,44.899],[14.2927,44.8952],[14.2862,44.8927],[14.2825,44.8844],[14.276,44.8816],[14.2677,44.8826],[14.2615,44.8854],[14.2531,44.887],[14.2264,44.899],[14.2031,44.9038],[14.1823,44.9027],[14.1719,44.8997],[14.1635,44.8988],[14.1573,44.8995],[14.1499,44.9031],[14.1534,44.9115],[14.1545,44.9177],[14.1497,44.9302],[14.142,44.9344],[14.1394,44.9385],[14.1415,44.9469],[14.151,44.9512],[14.1573,44.9524],[14.1613,44.9552],[14.1698,44.9698],[14.1752,44.976],[14.178,44.9865],[14.1749,45.0052],[14.1749,45.0135],[14.1698,45.0194],[14.167,45.0281],[14.1692,45.0427],[14.1662,45.0531],[14.1661,45.0635],[14.1797,45.076],[14.1921,45.0865],[14.202,45.099],[14.2052,45.1065],[14.2094,45.1075],[14.2213,45.1177],[14.2269,45.1323],[14.2301,45.1427],[14.2347,45.149],[14.2367,45.1552],[14.2454,45.1719],[14.2512,45.1948],[14.25,45.2031],[14.2524,45.2094],[14.2548,45.2198],[14.2639,45.2302],[14.2635,45.2365],[14.2682,45.2469],[14.2737,45.2552],[14.276,45.2644],[14.2806,45.2698],[14.2817,45.2823],[14.2857,45.2927],[14.2885,45.2973],[14.3012,45.3115],[14.3108,45.324],[14.324,45.3344],[14.3323,45.3383],[14.3365,45.3385],[14.349,45.3364],[14.3573,45.3297],[14.3677,45.3279],[14.3969,45.3258],[14.4052,45.3232],[14.4115,45.3227],[14.426,45.3146],[14.4406,45.3097],[14.4573,45.3087],[14.4618,45.3073],[14.4747,45.301],[14.481,45.2948],[14.4927,45.2868],[14.5092,45.2802],[14.5135,45.2772],[14.5302,45.2707],[14.5445,45.2677],[14.5482,45.2656],[14.5497,45.2615],[14.5469,45.2501],[14.5365,45.2435],[14.5302,45.2373],[14.5156,45.2359],[14.5049,45.2302],[14.5029,45.226],[14.5115,45.2215],[14.521,45.2073],[14.5226,45.199],[14.5281,45.1823],[14.5299,45.1698],[14.5187,45.1573],[14.5158,45.149],[14.518,45.1427],[14.5159,45.1344],[14.5135,45.13],[14.5094,45.1278],[14.5031,45.128],[14.4948,45.1309],[14.4844,45.1331],[14.474,45.1337],[14.4677,45.1309],[14.4633,45.126],[14.4586,45.1177],[14.4584,45.1135],[14.4608,45.1073],[14.4596,45.1052],[14.4531,45.1043],[14.4448,45.1054],[14.4385,45.104],[14.4298,45.0948],[14.4248,45.0865],[14.4256,45.0781],[14.4296,45.0677],[14.4365,45.06],[14.4448,45.0531],[14.4498,45.0469],[14.4573,45.0412],[14.4655,45.0365],[14.4719,45.0313],[14.4885,45.0213],[14.499,45.0165],[14.5052,45.0151],[14.5115,45.0167],[14.5177,45.0152],[14.5324,45.0073],[14.5281,45.0029],[14.5135,44.9997],[14.5073,44.9975],[14.503,44.9885],[14.499,44.9854],[14.4885,44.9871],[14.4844,44.9853],[14.4802,44.9754],[14.4767,44.9754]]]}},{"type":"Feature","properties":{"depth":-50},"geometry":{"type":"MultiLineString","coordinates":[[[15.0354,44.2],[15.0344,44.2004],[15.0243,44.2031],[15.0156,44.2133],[15.0031,44.2255],[14.9994,44.2302],[14.9997,44.2344],[15.0094,44.2345],[15.0177,44.227],[15.0365,44.2214],[15.0448,44.2228],[15.058,44.2344],[15.0608,44.2219],[15.0656,44.2132],[15.0728,44.2073],[15.0784,44.2]]]}},{"type":"Feature","properties":{"depth":-50},"geometry":{"type":"MultiLineString","coordinates":[[[14.849,44.2484],[14.8461,44.251],[14.8483,44.2615],[14.846,44.274],[14.8427,44.2776],[14.8344,44.2789],[14.824,44.2755],[14.8198,44.2765],[14.8094,44.2854],[14.7969,44.2915],[14.7781,44.3028],[14.7635,44.3106],[14.7552,44.314],[14.7528,44.3177],[14.7475,44.3323],[14.7489,44.3365],[14.7531,44.3389],[14.7615,44.3368],[14.7823,44.3263],[14.801,44.319],[14.8135,44.3129],[14.8406,44.3031],[14.8514,44.2906],[14.8573,44.2854],[14.8662,44.2802],[14.8719,44.274],[14.8758,44.2573],[14.874,44.2516],[14.8656,44.2536],[14.8573,44.2486],[14.849,44.2484]]]}},{"type":"Feature","properties":{"depth":-50},"geometry":{"type":"MultiLineString","coordinates":[[[14.6281,44.4727],[14.6227,44.4781],[14.6174,44.4865],[14.6135,44.4892],[14.6052,44.4907],[14.599,44.4896],[14.5929,44.501],[14.5865,44.5076],[14.574,44.5164],[14.5635,44.5207],[14.551,44.5231],[14.5344,44.524],[14.5302,44.5264],[14.5198,44.5358],[14.5156,44.5379],[14.501,44.5417],[14.4927,44.5483],[14.4781,44.5555],[14.4706,44.5615],[14.4469,44.5827],[14.4403,44.5906],[14.4365,44.599],[14.4331,44.6094],[14.4219,44.619],[14.4179,44.626],[14.4169,44.6323],[14.4184,44.6385],[14.4219,44.6427],[14.426,44.6401],[14.4307,44.6323],[14.4413,44.6177],[14.4531,44.6073],[14.4844,44.5897],[14.4927,44.5862],[14.5073,44.5833],[14.5198,44.584],[14.524,44.5819],[14.5343,44.5677],[14.5411,44.5552],[14.549,44.5485],[14.5594,44.5445],[14.5635,44.5414],[14.5698,44.5331],[14.5865,44.5222],[14.5927,44.5193],[14.6052,44.5158],[14.6177,44.5067],[14.6269,44.5031],[14.6399,44.4969],[14.6414,44.4823],[14.6406,44.4756],[14.6323,44.4719],[14.6281,44.4727]]]}},{"type":"Feature","properties":{"depth":-50},"geometry":{"type":"MultiLineString","coordinates":[[[13.9635,44.5776],[13.9596,44.5844],[13.9689,44.599],[13.9716,44.6094],[13.9702,44.6177],[13.9715,44.6198],[13.9848,44.626],[13.9904,44.6365],[13.999,44.6458],[14.0031,44.6485],[14.0059,44.6469],[14.005,44.6406],[14.0005,44.6365],[13.9958,44.6281],[13.9938,44.6135],[13.9838,44.601],[13.9823,44.5968],[13.9865,44.5959],[13.9927,44.6016],[14.0052,44.6096],[14.0198,44.6167],[14.026,44.6222],[14.0302,44.6239],[14.0374,44.624],[14.0377,44.6177],[14.0344,44.6144],[14.0135,44.6042],[14.001,44.5959],[13.9886,44.5865],[13.9823,44.5794],[13.976,44.5774],[13.9635,44.5776]]]}},{"type":"Feature","properties":{"depth":-50},"geometry":{"type":"MultiLineString","coordinates":[[[14.601,44.6343],[14.6094,44.6328],[14.6183,44.6365],[14.6168,44.6427],[14.6058,44.649],[14.6032,44.6656],[14.5989,44.674],[14.5927,44.6817],[14.5844,44.6869],[14.574,44.6896],[14.5656,44.6891],[14.5615,44.6867],[14.5561,44.6781],[14.5537,44.6656],[14.5573,44.6568],[14.5698,44.6502],[14.5906,44.6406],[14.601,44.6343]]]}},{"type":"Feature","properties":{"depth":-50},"geometry":{"type":"MultiLineString","coordinates":[[[14.2115,44.6781],[14.2057,44.6802],[14.2052,44.6845],[14.201,44.6878],[14.1977,44.6969],[14.1991,44.7115],[14.2012,44.7198],[14.2005,44.724],[14.1959,44.7302],[14.1927,44.7378],[14.1885,44.7422],[14.1823,44.7446],[14.1656,44.7463],[14.1594,44.7427],[14.154,44.7448],[14.1469,44.7501],[14.1406,44.7532],[14.1302,44.7558],[14.124,44.7597],[14.1135,44.764],[14.1075,44.7698],[14.1066,44.7802],[14.101,44.7849],[14.0948,44.7845],[14.093,44.7865],[14.0936,44.7927],[14.0969,44.7948],[14.1052,44.7914],[14.1177,44.7891],[14.126,44.7895],[14.1344,44.793],[14.1531,44.7942],[14.1635,44.7888],[14.1781,44.7888],[14.1865,44.7852],[14.1948,44.7875],[14.201,44.7864],[14.2241,44.7719],[14.2385,44.7673],[14.2448,44.763],[14.25,44.7573],[14.2634,44.7344],[14.2677,44.7287],[14.2737,44.724],[14.2705,44.7177],[14.2677,44.7164],[14.2615,44.7179],[14.2448,44.7118],[14.2407,44.7073],[14.2404,44.6969],[14.2375,44.6906],[14.2281,44.6809],[14.2198,44.677],[14.2115,44.6781]]]}},{"type":"Feature","properties":{"depth":-50},"geometry":{"type":"MultiLineString","coordinates":[[[14.2823,44.9717],[14.2885,44.9705],[14.2934,44.976],[14.2925,44.9802],[14.284,44.9865],[14.2882,44.9927],[14.2867,45.0073],[14.2851,45.0115],[14.2802,45.0167],[14.274,45.0204],[14.2656,45.0226],[14.2615,45.0214],[14.2561,45.0156],[14.2535,45.0094],[14.253,44.9948],[14.2544,44.9906],[14.2594,44.9847],[14.2719,44.9775],[14.2781,44.9788],[14.2823,44.9717]]]}},{"type":"Feature","properties":{"depth":-20},"geometry":{"type":"MultiLineString","coordinates":[[[12.6967,44.2],[12.6925,44.2031],[12.676,44.2171],[12.6552,44.2304],[12.6414,44.2406],[12.6319,44.249],[12.626,44.2568],[12.6052,44.2783],[12.6005,44.2844],[12.5865,44.2989],[12.5802,44.304],[12.5679,44.3177],[12.551,44.3399],[12.5448,44.3458],[12.5309,44.3656],[12.5281,44.3708],[12.5218,44.3781],[12.5115,44.392],[12.5052,44.4036],[12.4983,44.4135],[12.4892,44.4281],[12.4787,44.4552],[12.4763,44.4635],[12.4704,44.476],[12.4677,44.4837],[12.4611,44.4969],[12.4589,44.5052],[12.4553,44.5135],[12.4451,44.5302],[12.4432,44.5385],[12.4436,44.5573],[12.4458,44.5865],[12.4459,44.5927],[12.4428,44.6094],[12.4384,44.6177],[12.4323,44.6236],[12.4223,44.6385],[12.4197,44.6448],[12.4171,44.6552],[12.4166,44.6698],[12.4186,44.676],[12.4188,44.7073],[12.421,44.7156],[12.4253,44.726],[12.4329,44.7365],[12.4466,44.7448],[12.478,44.7698],[12.4885,44.7796],[12.4948,44.784],[12.5052,44.7982],[12.5177,44.8072],[12.522,44.8115],[12.5323,44.8278],[12.5469,44.8472],[12.5568,44.8573],[12.5606,44.8656],[12.5694,44.8781],[12.5825,44.8927],[12.5981,44.9198],[12.5993,44.924],[12.5984,44.9427],[12.5965,44.9531],[12.5897,44.9656],[12.5839,44.9719],[12.5719,44.9817],[12.5635,44.9826],[12.5436,44.9969],[12.5365,45.0037],[12.5302,45.0073],[12.5135,45.0199],[12.4929,45.0302],[12.4781,45.039],[12.4635,45.0527],[12.4323,45.0758],[12.4199,45.0865],[12.4105,45.0969],[12.4031,45.1091],[12.3946,45.1198],[12.3928,45.124],[12.3892,45.1406],[12.3888,45.1552],[12.3918,45.1698],[12.3898,45.1865],[12.3851,45.201],[12.3857,45.2052],[12.3948,45.224],[12.3969,45.2385],[12.3955,45.2406],[12.3872,45.2448],[12.3849,45.249],[12.3874,45.2552],[12.393,45.2635],[12.3969,45.2664],[12.4075,45.2698],[12.4103,45.276],[12.4198,45.2791],[12.424,45.2723],[12.4344,45.2723],[12.4469,45.2739],[12.4865,45.2957],[12.501,45.3026],[12.5115,45.3049],[12.526,45.3096],[12.5365,45.3143],[12.5448,45.3162],[12.5844,45.3239],[12.6073,45.333],[12.6229,45.3365],[12.6281,45.3396],[12.6385,45.349],[12.6406,45.3552],[12.6469,45.3594],[12.6552,45.3677],[12.654,45.376],[12.6479,45.3865],[12.643,45.3927],[12.6365,45.3966],[12.624,45.3986],[12.6156,45.391],[12.6073,45.3851],[12.6031,45.3849],[12.5983,45.3885],[12.598,45.3927],[12.6045,45.4052],[12.6094,45.41],[12.6156,45.4127],[12.6302,45.4226],[12.6427,45.4271],[12.6659,45.4344],[12.6823,45.4411],[12.6885,45.4443],[12.724,45.4581],[12.7403,45.4635],[12.7594,45.4715],[12.7802,45.4818],[12.8105,45.4948],[12.8233,45.499],[12.8323,45.5009],[12.8531,45.4983],[12.8615,45.499],[12.9052,45.509],[12.9177,45.5125],[12.949,45.5144],[12.9573,45.5155],[12.9636,45.5177],[12.9698,45.5217],[12.9781,45.5215],[12.999,45.5158],[13.0156,45.5162],[13.0281,45.515],[13.0385,45.5125],[13.0448,45.5129],[13.0635,45.5202],[13.0698,45.5214],[13.0781,45.5207],[13.0927,45.5165],[13.1094,45.5162],[13.1135,45.5173],[13.124,45.5242],[13.1302,45.5256],[13.1448,45.5265],[13.1615,45.525],[13.1781,45.5285],[13.1927,45.53],[13.2135,45.5302],[13.2344,45.5273],[13.2413,45.5281],[13.2552,45.5318],[13.2751,45.5344],[13.2865,45.5373],[13.2937,45.5427],[13.3031,45.5469],[13.326,45.5529],[13.3438,45.5594],[13.3531,45.5674],[13.3656,45.5727],[13.3713,45.5802],[13.3802,45.5863],[13.399,45.5924],[13.4114,45.599],[13.4219,45.603],[13.4406,45.6068],[13.451,45.6113],[13.4552,45.612],[13.4698,45.6116],[13.4768,45.6135],[13.4865,45.6205],[13.4969,45.6222],[13.5094,45.6207],[13.5177,45.621],[13.5302,45.6251],[13.5448,45.6342],[13.5538,45.6448],[13.5698,45.6555],[13.6052,45.6674],[13.6223,45.6781],[13.6281,45.6841],[13.6365,45.6879],[13.649,45.6891],[13.6531,45.6808],[13.6573,45.679],[13.6756,45.6802],[13.6948,45.6836],[13.7031,45.6826],[13.7094,45.6785],[13.726,45.6697],[13.7345,45.6594],[13.7345,45.6531],[13.7289,45.6427],[13.7299,45.6344],[13.7284,45.6198],[13.7226,45.6156],[13.7135,45.6123],[13.7015,45.6031],[13.6922,45.5969],[13.687,45.5906],[13.6802,45.5803],[13.674,45.5739],[13.6683,45.5698],[13.6652,45.5656],[13.6636,45.5552],[13.6615,45.5534],[13.6477,45.551],[13.6094,45.5484],[13.601,45.5461],[13.5822,45.5365],[13.576,45.5356],[13.5615,45.5354],[13.5564,45.5323],[13.551,45.5216],[13.5448,45.5186],[13.5344,45.5172],[13.5177,45.5118],[13.5073,45.5113],[13.4906,45.5078],[13.4813,45.5073],[13.4771,45.5031],[13.4823,45.499],[13.4836,45.4948],[13.4794,45.4844],[13.4814,45.476],[13.4863,45.4677],[13.4905,45.4531],[13.4888,45.4406],[13.496,45.4302],[13.5035,45.4219],[13.5059,45.4135],[13.5125,45.4052],[13.5145,45.401],[13.5248,45.3677],[13.5255,45.3615],[13.5244,45.351],[13.521,45.3448],[13.5212,45.3365],[13.5266,45.326],[13.5326,45.3177],[13.5367,45.3094],[13.5406,45.3052],[13.5552,45.3008],[13.5589,45.2927],[13.5592,45.2823],[13.5581,45.2781],[13.5516,45.2719],[13.5519,45.2698],[13.5597,45.2635],[13.5646,45.2531],[13.5752,45.2365],[13.5769,45.2281],[13.5762,45.2135],[13.5713,45.2052],[13.5577,45.1927],[13.556,45.1885],[13.5573,45.1802],[13.5622,45.174],[13.562,45.1677],[13.5579,45.1573],[13.5586,45.1531],[13.5644,45.1406],[13.5684,45.1344],[13.5727,45.1219],[13.5744,45.1198],[13.5844,45.1153],[13.6031,45.0998],[13.6075,45.0948],[13.6112,45.0823],[13.601,45.0764],[13.5958,45.0677],[13.5946,45.0615],[13.5973,45.051],[13.6024,45.0365],[13.6094,45.0301],[13.6198,45.0295],[13.6323,45.0332],[13.6365,45.0356],[13.6469,45.0442],[13.649,45.0429],[13.6577,45.026],[13.6634,45.0177],[13.6634,45.0135],[13.657,45.0052],[13.6656,45.0048],[13.6802,45.0022],[13.6906,45.007],[13.6948,45.0072],[13.6973,45.0031],[13.69,44.9906],[13.6911,44.9865],[13.699,44.9813],[13.7073,44.9796],[13.7135,44.9814],[13.7219,44.9796],[13.726,44.9755],[13.7288,44.9677],[13.7242,44.9615],[13.7177,44.9586],[13.7052,44.958],[13.6997,44.9531],[13.6982,44.949],[13.6985,44.9406],[13.7043,44.926],[13.704,44.9198],[13.7061,44.9115],[13.7094,44.9055],[13.7135,44.902],[13.724,44.8971],[13.7344,44.8943],[13.7385,44.8908],[13.7469,44.8791],[13.751,44.8786],[13.762,44.8865],[13.7657,44.8927],[13.7719,44.8962],[13.7823,44.8969],[13.7854,44.8948],[13.7895,44.8885],[13.7902,44.8823],[13.7932,44.8745]]]}},{"type":"Feature","properties":{"depth":-20},"geometry":{"type":"MultiLineString","coordinates":[[[14.9139,44.2],[14.9142,44.201],[14.9249,44.201],[14.9199,44.2114]]]}},{"type":"Feature","properties":{"depth":-20},"geometry":{"type":"MultiLineString","coordinates":[[[14.9198,44.2115],[14.9135,44.2147],[14.9056,44.224],[14.901,44.2268],[14.8906,44.2289],[14.8829,44.235]]]}},{"type":"Feature","properties":{"depth":-20},"geometry":{"type":"MultiLineString","coordinates":[[[14.7812,44.2251],[14.7823,44.23],[14.7677,44.2305],[14.765,44.2323],[14.7698,44.2423],[14.7729,44.251],[14.7781,44.2557],[14.7844,44.2559],[14.7898,44.249],[14.7969,44.2454]]]}},{"type":"Feature","properties":{"depth":-20},"geometry":{"type":"MultiLineString","coordinates":[[[14.8417,44.2406],[14.8379,44.2427],[14.8349,44.249],[14.8302,44.2527],[14.8239,44.253]]]}},{"type":"Feature","properties":{"depth":-20},"geometry":{"type":"MultiLineString","coordinates":[[[14.8143,44.2586],[14.8155,44.2635],[14.8138,44.2677],[14.801,44.2779],[14.7906,44.2813],[14.7844,44.2859],[14.7781,44.2875],[14.774,44.2913],[14.7677,44.2934],[14.7615,44.2995],[14.7573,44.3006],[14.7469,44.2993],[14.7434,44.3094],[14.7406,44.3127],[14.7365,44.3136],[14.7323,44.3111],[14.7271,44.3031],[14.7267,44.299],[14.7302,44.2953],[14.7344,44.2949],[14.7385,44.2974],[14.7448,44.298],[14.7459,44.2927],[14.7444,44.2885],[14.7406,44.2853],[14.7344,44.2852],[14.7235,44.2906],[14.7181,44.299],[14.7178,44.3031],[14.7259,44.326],[14.7269,44.3323],[14.7313,44.3427],[14.7411,44.351],[14.7432,44.3573],[14.749,44.3581],[14.7635,44.3539],[14.7685,44.3469],[14.774,44.3428],[14.7865,44.3416],[14.795,44.3365],[14.8177,44.3282],[14.8244,44.3281],[14.8271,44.3302],[14.8259,44.3385],[14.8267,44.3448],[14.8365,44.3635],[14.8427,44.369],[14.849,44.372],[14.8552,44.3708],[14.8698,44.3589],[14.874,44.3573],[14.8807,44.3573],[14.8824,44.3615],[14.8802,44.3657],[14.8719,44.3742],[14.8656,44.3869],[14.8573,44.3923],[14.8406,44.3921],[14.8365,44.3935],[14.8281,44.3994],[14.82,44.4094],[14.7969,44.4201],[14.7802,44.426],[14.7635,44.4237],[14.7526,44.426],[14.746,44.4344],[14.7385,44.4378],[14.7281,44.4392],[14.7257,44.4406],[14.7225,44.4469],[14.7177,44.4519],[14.7135,44.4511],[14.7094,44.4448],[14.7078,44.4385],[14.699,44.4339],[14.6885,44.4241],[14.6802,44.4212],[14.6698,44.4209],[14.6656,44.4183],[14.6568,44.4031],[14.6561,44.3927],[14.6579,44.3865],[14.6615,44.3835],[14.6698,44.3814],[14.6802,44.3802],[14.6834,44.376],[14.6869,44.3656],[14.6878,44.3594],[14.6901,44.3552],[14.701,44.3515],[14.7043,44.3469],[14.7036,44.3406],[14.699,44.3376],[14.6927,44.3367],[14.6865,44.3374],[14.6823,44.3432],[14.6802,44.3435],[14.6775,44.3385],[14.6844,44.3347],[14.6881,44.326],[14.6948,44.3177],[14.7062,44.2969],[14.6969,44.2961],[14.6906,44.2974],[14.6823,44.2967],[14.676,44.2991],[14.6659,44.3177],[14.6615,44.323],[14.651,44.3276],[14.6441,44.3365],[14.6365,44.3405],[14.6302,44.341],[14.624,44.3458],[14.6135,44.3485],[14.6095,44.3531],[14.599,44.3594],[14.5844,44.3616],[14.5781,44.3677],[14.574,44.3696],[14.5698,44.368],[14.5664,44.3635],[14.5674,44.3573],[14.5807,44.3406],[14.5814,44.3344],[14.5865,44.3273],[14.5948,44.3219],[14.601,44.3198],[14.6115,44.3184],[14.624,44.3101],[14.6406,44.3015],[14.6552,44.2972],[14.6656,44.2973],[14.674,44.2948],[14.6763,44.2906],[14.6781,44.2816],[14.6844,44.2809],[14.6982,44.2698],[14.7052,44.2672],[14.7198,44.2668],[14.724,44.2651],[14.7258,44.2615],[14.7258,44.2552],[14.7337,44.2406],[14.7385,44.2375],[14.749,44.2389],[14.76,44.2323],[14.7623,44.2281],[14.7638,44.2177],[14.7677,44.2155],[14.7744,44.2177]]]}},{"type":"Feature","properties":{"depth":-20},"geometry":{"type":"MultiLineString","coordinates":[[[15.0183,44.5578],[15.0281,44.5541],[15.0365,44.5497],[15.051,44.5397],[15.0552,44.5376],[15.0615,44.5315],[15.0698,44.5209],[15.076,44.5183],[15.0818,44.5135],[15.0948,44.5066],[15.111,44.4906],[15.1189,44.4781],[15.1311,44.4677],[15.151,44.453],[15.1594,44.45],[15.1682,44.4448],[15.1726,44.4406],[15.204,44.4198],[15.2062,44.4135],[15.2094,44.4101],[15.2281,44.4037],[15.2382,44.3948],[15.2516,44.3802],[15.2552,44.3774],[15.2635,44.3661],[15.2677,44.3622],[15.2831,44.3552],[15.2991,44.349],[15.3019,44.3469],[15.3037,44.3406],[15.3027,44.3344],[15.2948,44.3292],[15.2865,44.3301],[15.2802,44.3345],[15.2698,44.3357],[15.258,44.3406],[15.251,44.3516],[15.2448,44.3545],[15.2385,44.3615],[15.2115,44.3788],[15.2052,44.385],[15.201,44.3869],[15.1948,44.3866],[15.1914,44.3885],[15.1835,44.401],[15.151,44.4164],[15.1412,44.426],[15.1361,44.4323],[15.1281,44.4384],[15.1219,44.4418],[15.1094,44.4526],[15.1052,44.4548],[15.099,44.4556],[15.0906,44.4587],[15.0865,44.464],[15.0815,44.4677],[15.0864,44.476],[15.0852,44.4802],[15.0746,44.4906],[15.0662,44.501],[15.0607,44.5052],[15.0573,44.5115],[15.0448,44.5223],[15.0323,44.5278],[15.026,44.5294],[15.0156,44.5287],[15.0094,44.532],[14.999,44.5355],[14.9781,44.552],[14.9727,44.5573],[14.9708,44.5615],[14.9677,44.5742],[14.9635,44.5805],[14.9573,44.5846],[14.9448,44.5894],[14.9413,44.5927],[14.9365,44.6013],[14.9219,44.6069],[14.9177,44.6133],[14.9115,44.6153],[14.9031,44.6118],[14.8927,44.6131],[14.8865,44.6117],[14.8781,44.6145],[14.8656,44.6076],[14.8634,44.6073],[14.849,44.6142],[14.8302,44.6278],[14.8135,44.6423],[14.8076,44.649],[14.7865,44.6686],[14.7761,44.6802],[14.7677,44.6879],[14.7385,44.7075],[14.7333,44.7073],[14.721,44.7031],[14.724,44.7006],[14.729,44.6927],[14.7334,44.6823],[14.7448,44.67],[14.7503,44.6656],[14.7583,44.6573],[14.7677,44.6514],[14.774,44.6411],[14.7805,44.6323],[14.7927,44.6234],[14.799,44.6142],[14.8115,44.6072],[14.8291,44.5927],[14.8323,44.5857],[14.8411,44.576],[14.8468,44.5677],[14.8448,44.563],[14.8385,44.5638],[14.8344,44.5618],[14.8322,44.5552],[14.8365,44.5514],[14.8469,44.5499],[14.849,44.5474],[14.8552,44.5321],[14.8594,44.5292],[14.8687,44.5281],[14.8732,44.5219],[14.8736,44.5135],[14.8672,44.5031],[14.8573,44.497],[14.8478,44.4885],[14.8459,44.4844],[14.8473,44.474],[14.851,44.471],[14.8635,44.4672],[14.8758,44.4594],[14.8794,44.451],[14.887,44.4448],[14.8925,44.4344],[14.8969,44.4303],[14.9073,44.4271],[14.9156,44.4227],[14.9219,44.4132],[14.9281,44.4074],[14.9406,44.4019],[14.949,44.4036],[14.9573,44.3991],[14.9635,44.3982],[14.9713,44.3948],[14.9823,44.3918],[15.001,44.3905],[15.0115,44.3944],[15.0177,44.3951],[15.0302,44.3933],[15.0344,44.3916],[15.0427,44.3848],[15.051,44.387],[15.0594,44.3829],[15.076,44.3798],[15.08,44.376],[15.0812,44.3531],[15.0825,44.3469],[15.0812,44.3427],[15.074,44.3351],[15.0677,44.3308],[15.0615,44.3292],[15.051,44.3318],[15.0406,44.3327],[15.0281,44.339],[15.0177,44.329],[15.0144,44.3219],[15.0143,44.3177],[15.0198,44.2999],[15.0219,44.2963],[15.0365,44.2835],[15.0448,44.2789],[15.0531,44.277],[15.0615,44.2776],[15.0719,44.2764],[15.0823,44.2789],[15.0885,44.2771],[15.0948,44.2708],[15.1008,44.2573],[15.1103,44.2406],[15.1094,44.2348],[15.1031,44.2323],[15.0981,44.2219],[15.1005,44.2156],[15.1177,44.2056],[15.1252,44.2]]]}},{"type":"Feature","properties":{"depth":-20},"geometry":{"type":"MultiLineString","coordinates":[[[14.3385,44.7045],[14.3357,44.6927],[14.3359,44.6719],[14.3381,44.6615],[14.3416,44.6531],[14.3463,44.6469],[14.3497,44.6365],[14.3531,44.6323],[14.3713,44.6177],[14.3731,44.6135],[14.3733,44.6052],[14.372,44.601],[14.3656,44.5978],[14.3609,44.5885],[14.3623,44.5781],[14.3594,44.5747],[14.351,44.5686],[14.3469,44.5675],[14.3406,44.5684],[14.3323,44.5726],[14.3218,44.5823],[14.3193,44.5865],[14.3174,44.5948],[14.3135,44.5981],[14.3052,44.5978],[14.2948,44.5941],[14.2906,44.5865],[14.2927,44.5802],[14.301,44.5731],[14.3132,44.5656],[14.3178,44.5615],[14.322,44.5552],[14.3323,44.5504],[14.3365,44.5509],[14.346,44.5552],[14.3531,44.5628],[14.3594,44.562],[14.3719,44.5555],[14.3823,44.5486],[14.3885,44.5471],[14.399,44.5417],[14.4031,44.543],[14.4094,44.5493],[14.4135,44.5509],[14.4167,44.5406],[14.4219,44.5365],[14.4323,44.5328],[14.4384,44.5281],[14.4423,44.5198],[14.4469,44.5158],[14.4552,44.5142],[14.4619,44.5073],[14.476,44.5004],[14.4839,44.4906],[14.4969,44.4805],[14.5052,44.4785],[14.5084,44.476],[14.5102,44.4698],[14.5135,44.4657],[14.5242,44.4594],[14.5262,44.4448],[14.5323,44.4365],[14.5385,44.4325],[14.5469,44.4306],[14.5573,44.4319],[14.5638,44.426],[14.5649,44.4198],[14.5632,44.4135],[14.5637,44.4094],[14.5677,44.4047],[14.5751,44.4094],[14.5762,44.4135],[14.5742,44.4198],[14.5768,44.426],[14.5844,44.4306],[14.5892,44.4385],[14.5897,44.4469],[14.5879,44.451],[14.574,44.4685],[14.5702,44.4719],[14.5751,44.4781],[14.577,44.4906],[14.5755,44.4948],[14.5698,44.4992],[14.5635,44.5073],[14.5469,44.511],[14.5365,44.5127],[14.524,44.5205],[14.5177,44.5257],[14.499,44.5299],[14.4926,44.5365],[14.4865,44.5404],[14.4781,44.5428],[14.4531,44.5634],[14.4469,44.5703],[14.4406,44.5744],[14.4319,44.5865],[14.4266,44.601],[14.424,44.6046],[14.4156,44.6092],[14.4094,44.6219],[14.4054,44.6281],[14.4047,44.6323],[14.4075,44.6406],[14.4064,44.649],[14.4087,44.6573],[14.4112,44.6594],[14.4198,44.6604],[14.4323,44.6535],[14.4362,44.649],[14.4387,44.6427],[14.4441,44.6365],[14.451,44.6251],[14.4615,44.617],[14.4719,44.612],[14.4838,44.6031],[14.4927,44.5989],[14.5052,44.5972],[14.5094,44.5975],[14.5177,44.6021],[14.524,44.6016],[14.5343,44.5948],[14.5457,44.5802],[14.5523,44.5698],[14.5533,44.5615],[14.5573,44.559],[14.5656,44.5585],[14.5781,44.5451],[14.5927,44.5365],[14.599,44.5342],[14.6059,44.5344],[14.6115,44.5375],[14.6219,44.5325],[14.6225,44.5385],[14.6198,44.5427],[14.6156,44.5441],[14.6031,44.5451],[14.5963,44.549],[14.5887,44.5594],[14.5823,44.5646],[14.5781,44.5661],[14.5751,44.5698],[14.5757,44.576],[14.5735,44.5802],[14.5615,44.5874],[14.5552,44.5932],[14.549,44.5955],[14.5454,44.599],[14.543,44.6073],[14.5439,44.6135],[14.5465,44.6198],[14.5483,44.6302],[14.549,44.6428],[14.541,44.649],[14.5281,44.6513],[14.524,44.6535],[14.5138,44.6677],[14.5094,44.6774],[14.5031,44.6797],[14.4865,44.69],[14.4833,44.6969],[14.4865,44.7039],[14.4906,44.7052],[14.501,44.7036],[14.5011,44.7094],[14.4936,44.7135],[14.4914,44.7226]]]}},{"type":"Feature","properties":{"depth":-20},"geometry":{"type":"MultiLineString","coordinates":[[[14.8909,44.7091],[14.8922,44.6948],[14.899,44.6888],[14.9048,44.6781],[14.9105,44.6719],[14.9156,44.6683],[14.9237,44.6594],[14.926,44.6491],[14.9302,44.643],[14.9369,44.6385],[14.9524,44.624],[14.9611,44.6135],[14.963,44.6094],[14.9655,44.5969],[14.9698,44.5909],[14.9807,44.5802],[14.9841,44.5719],[14.9881,44.5677],[15.0031,44.5613],[15.0135,44.5594]]]}},{"type":"Feature","properties":{"depth":-20},"geometry":{"type":"MultiLineString","coordinates":[[[14.4895,44.7249],[14.4741,44.7302],[14.4774,44.7365]]]}},{"type":"Feature","properties":{"depth":-20},"geometry":{"type":"MultiLineString","coordinates":[[[14.7258,44.7549],[14.7323,44.7539],[14.7427,44.7494],[14.7531,44.749],[14.7573,44.7479],[14.7642,44.7427],[14.7673,44.7365],[14.7781,44.7288],[14.7844,44.7258],[14.799,44.716],[14.8027,44.7094],[14.8211,44.6927],[14.8269,44.6844],[14.8344,44.6812],[14.847,44.6823],[14.8504,44.6906],[14.8694,44.6969],[14.873,44.7031],[14.8716,44.7219],[14.8648,44.7302],[14.8615,44.7388],[14.8469,44.7469],[14.8418,44.751],[14.8378,44.7573],[14.8281,44.7619],[14.8073,44.7785],[14.7969,44.7822],[14.7925,44.7885],[14.774,44.8026],[14.7615,44.8156],[14.7609,44.8177],[14.7636,44.8302],[14.7656,44.8331],[14.7741,44.8385],[14.7779,44.8448],[14.7871,44.8531],[14.7878,44.8573],[14.7863,44.8635],[14.7782,44.874],[14.7677,44.8793],[14.751,44.8901],[14.7469,44.8899],[14.7406,44.8789],[14.7344,44.8751],[14.7304,44.8677],[14.7286,44.8615],[14.724,44.8564],[14.7141,44.8531],[14.7099,44.8469],[14.7031,44.845],[14.6927,44.8465],[14.6844,44.8491],[14.6758,44.849],[14.6732,44.8448],[14.6736,44.8385],[14.6781,44.8258],[14.6832,44.8198],[14.6847,44.8156],[14.6802,44.8091],[14.674,44.8079],[14.6635,44.8027],[14.6552,44.7961],[14.6528,44.7927],[14.6533,44.7865],[14.6615,44.7787],[14.6696,44.7677],[14.676,44.7619],[14.6835,44.7573],[14.6885,44.7557],[14.6948,44.7559],[14.7,44.7542]]]}},{"type":"Feature","properties":{"depth":-20},"geometry":{"type":"MultiLineString","coordinates":[[[13.925,44.7667],[13.9323,44.7709],[13.9365,44.7708],[13.9448,44.7658],[13.949,44.7655],[13.9573,44.7711],[13.9635,44.7701],[13.9677,44.7758],[13.9781,44.7786],[13.9929,44.8031]]]}},{"type":"Feature","properties":{"depth":-20},"geometry":{"type":"MultiLineString","coordinates":[[[14.8782,44.7905],[14.878,44.7865],[14.8839,44.7677],[14.8836,44.7552],[14.8919,44.7406],[14.8924,44.7344],[14.8895,44.7281],[14.8887,44.72]]]}},{"type":"Feature","properties":{"depth":-20},"geometry":{"type":"MultiLineString","coordinates":[[[14.3187,44.7927],[14.3156,44.794],[14.3109,44.7885],[14.3012,44.7823],[14.2997,44.7781],[14.3013,44.7659]]]}},{"type":"Feature","properties":{"depth":-20},"geometry":{"type":"MultiLineString","coordinates":[[[13.8745,44.8031],[13.876,44.7954],[13.8802,44.7957],[13.8841,44.807]]]}},{"type":"Feature","properties":{"depth":-20},"geometry":{"type":"MultiLineString","coordinates":[[[13.8928,44.8073],[13.8987,44.801],[13.8989,44.7906],[13.8951,44.7844],[13.9015,44.776],[13.9018,44.7719],[13.8917,44.7573],[13.8948,44.7555],[13.9094,44.7647],[13.9156,44.7657]]]}},{"type":"Feature","properties":{"depth":-20},"geometry":{"type":"MultiLineString","coordinates":[[[14.0021,44.8073],[13.9985,44.8177],[13.992,44.824],[13.9906,44.8281]]]}},{"type":"Feature","properties":{"depth":-20},"geometry":{"type":"MultiLineString","coordinates":[[[13.8473,44.8181],[13.8535,44.8156],[13.8573,44.8094],[13.8662,44.8088]]]}},{"type":"Feature","properties":{"depth":-20},"geometry":{"type":"MultiLineString","coordinates":[[[13.9904,44.8305],[13.9863,44.8427],[13.988,44.8469],[13.9927,44.8523],[13.999,44.8568],[14.0024,44.8629]]]}},{"type":"Feature","properties":{"depth":-20},"geometry":{"type":"MultiLineString","coordinates":[[[14.3302,44.8477],[14.328,44.8427],[14.3298,44.826],[14.3315,44.8219],[14.3379,44.815]]]}},{"type":"Feature","properties":{"depth":-20},"geometry":{"type":"MultiLineString","coordinates":[[[13.8181,44.8535],[13.8286,44.8469],[13.8285,44.8427],[13.8255,44.8365],[13.8281,44.832],[13.8344,44.8308],[13.8385,44.8276]]]}},{"type":"Feature","properties":{"depth":-20},"geometry":{"type":"MultiLineString","coordinates":[[[13.7931,44.8715],[13.7935,44.8635],[13.801,44.8544],[13.8073,44.8562],[13.8118,44.8549]]]}},{"type":"Feature","properties":{"depth":-20},"geometry":{"type":"MultiLineString","coordinates":[[[14.572,44.9449],[14.576,44.9408],[14.5823,44.941],[14.5854,44.9448],[14.586,44.9552],[14.5927,44.9647],[14.5981,44.9677],[14.6078,44.9781],[14.601,44.9793],[14.5993,44.976],[14.5946,44.976],[14.5985,44.9823],[14.5926,44.9865],[14.5807,44.9927],[14.5635,44.9979],[14.5552,44.9951],[14.5385,44.9947],[14.524,44.9927],[14.5156,44.9886],[14.5062,44.9802]]]}},{"type":"Feature","properties":{"depth":-20},"geometry":{"type":"MultiLineString","coordinates":[[[14.5046,44.9698],[14.5177,44.9553],[14.524,44.9511],[14.5323,44.9481],[14.5385,44.9479],[14.549,44.9519],[14.5615,44.9504],[14.5656,44.9469],[14.5717,44.945]]]}},{"type":"Feature","properties":{"depth":-20},"geometry":{"type":"MultiLineString","coordinates":[[[14.5521,45.0115],[14.5635,45.009],[14.5696,45.0135],[14.5844,45.0208],[14.5897,45.0207]]]}},{"type":"Feature","properties":{"depth":-20},"geometry":{"type":"MultiLineString","coordinates":[[[14.6147,45.0135],[14.6207,45.0052],[14.6217,44.999],[14.6202,44.9927],[14.6132,44.9865],[14.6102,44.9781],[14.6151,44.9719],[14.6281,44.9672],[14.651,44.9554],[14.6573,44.9555],[14.6677,44.9586],[14.6724,44.9573],[14.6802,44.9527],[14.6832,44.9469],[14.6802,44.9446],[14.676,44.9507],[14.6719,44.9481],[14.6703,44.9427],[14.674,44.9345],[14.679,44.9344],[14.6865,44.9376],[14.699,44.938],[14.7198,44.9322],[14.7302,44.9305],[14.7365,44.9279],[14.749,44.928],[14.7552,44.9305],[14.7615,44.9306],[14.765,44.926],[14.7648,44.9156],[14.7674,44.9094],[14.776,44.9028],[14.7823,44.8965],[14.7906,44.8957],[14.8073,44.8885],[14.8344,44.8791],[14.8433,44.8802],[14.8446,44.8865],[14.8409,44.8969],[14.8338,44.9094],[14.8302,44.9132],[14.8161,44.924],[14.8031,44.9301],[14.7927,44.9295],[14.7865,44.9337],[14.7719,44.9373],[14.7693,44.9406],[14.7676,44.951],[14.7644,44.9552],[14.7656,44.957],[14.7823,44.9589],[14.799,44.9569],[14.8052,44.9554],[14.8127,44.9573],[14.8246,44.9656],[14.8271,44.9698],[14.8274,44.976],[14.8199,44.9906],[14.8156,44.9957],[14.8031,45.001],[14.7961,45.0018]]]}},{"type":"Feature","properties":{"depth":-20},"geometry":{"type":"MultiLineString","coordinates":[[[14.8662,45.0588],[14.8724,45.0406],[14.8725,45.0344],[14.8793,45.0219],[14.8807,45.0156],[14.8851,45.0115],[14.8872,45.0052],[14.8913,44.999],[14.8917,44.9865],[14.8927,44.9823],[14.8976,44.9781],[14.9118,44.9698],[14.9151,44.9656],[14.919,44.951],[14.9193,44.9427],[14.9173,44.9365],[14.9114,44.924],[14.91,44.9177],[14.906,44.9115],[14.8985,44.8969],[14.8941,44.8865],[14.8882,44.8781],[14.8869,44.8677],[14.8832,44.8594],[14.8798,44.8448],[14.8782,44.8302],[14.8793,44.824],[14.8773,44.8031],[14.879,44.7957]]]}},{"type":"Feature","properties":{"depth":-20},"geometry":{"type":"MultiLineString","coordinates":[[[14.526,45.1371],[14.5215,45.126],[14.5135,45.1198],[14.504,45.1177]]]}},{"type":"Feature","properties":{"depth":-20},"geometry":{"type":"MultiLineString","coordinates":[[[14.5404,45.174],[14.5393,45.1656],[14.5302,45.1565],[14.5253,45.1531],[14.525,45.15]]]}},{"type":"Feature","properties":{"depth":-20},"geometry":{"type":"MultiLineString","coordinates":[[[14.6738,45.1866],[14.6865,45.1722]]]}},{"type":"Feature","properties":{"depth":-20},"geometry":{"type":"MultiLineString","coordinates":[[[14.5305,45.2281],[14.5281,45.2294],[14.522,45.226],[14.5235,45.2198],[14.532,45.2073],[14.5322,45.1969],[14.5351,45.185]]]}},{"type":"Feature","properties":{"depth":-20},"geometry":{"type":"MultiLineString","coordinates":[[[14.5537,45.2781],[14.5588,45.2677],[14.5596,45.2635],[14.5571,45.255]]]}},{"type":"Feature","properties":{"depth":-20},"geometry":{"type":"MultiLineString","coordinates":[[[15.5027,44.2],[15.5022,44.201],[15.5052,44.2035],[15.5198,44.2046],[15.5323,44.2068],[15.5406,44.2068],[15.5476,44.2052],[15.5477,44.201],[15.5448,44.2]]]}},{"type":"Feature","properties":{"depth":-20},"geometry":{"type":"MultiLineString","coordinates":[[[15.0323,44.242],[15.0362,44.2427],[15.0344,44.2478],[15.0281,44.249],[15.0263,44.2469],[15.0323,44.242]]]}},{"type":"Feature","properties":{"depth":-20},"geometry":{"type":"MultiLineString","coordinates":[[[14.8323,44.26],[14.8366,44.2615],[14.8365,44.268],[14.8323,44.2675],[14.8304,44.2615],[14.8323,44.26]]]}},{"type":"Feature","properties":{"depth":-20},"geometry":{"type":"MultiLineString","coordinates":[[[15.4156,44.2635],[15.4052,44.2653],[15.3969,44.2689],[15.3885,44.2744],[15.3789,44.2844],[15.3719,44.2879],[15.3672,44.2948],[15.3686,44.3052],[15.3719,44.3085],[15.3844,44.3107],[15.3927,44.3096],[15.4115,44.301],[15.4222,44.2948],[15.4276,44.2885],[15.4288,44.2844],[15.4252,44.2698],[15.4219,44.2654],[15.4156,44.2635]]]}},{"type":"Feature","properties":{"depth":-20},"geometry":{"type":"MultiLineString","coordinates":[[[14.9969,44.2671],[15.001,44.2658],[15.0073,44.2665],[15.0094,44.2719],[15.0031,44.2733],[14.9923,44.2719],[14.9969,44.2671]]]}},{"type":"Feature","properties":{"depth":-20},"geometry":{"type":"MultiLineString","coordinates":[[[15.2552,44.2844],[15.2502,44.2885],[15.2464,44.2948],[15.2411,44.3073],[15.2415,44.3115],[15.2448,44.3147],[15.251,44.3154],[15.2552,44.3139],[15.2601,44.3094],[15.2635,44.302],[15.2697,44.2969],[15.2714,44.2906],[15.2698,44.2865],[15.2594,44.2838],[15.2552,44.2844]]]}},{"type":"Feature","properties":{"depth":-20},"geometry":{"type":"MultiLineString","coordinates":[[[14.9865,44.4069],[14.9843,44.4135],[14.9802,44.4156],[14.9615,44.4153],[14.9573,44.4182],[14.9469,44.4328],[14.9448,44.4338],[14.9281,44.4349],[14.924,44.4365],[14.9161,44.4469],[14.9037,44.4573],[14.9013,44.4615],[14.9031,44.4701],[14.9115,44.4744],[14.9177,44.4741],[14.9281,44.4682],[14.9344,44.4631],[14.9427,44.4601],[14.9557,44.4573],[14.9615,44.4536],[14.9698,44.4556],[14.9781,44.4527],[14.9891,44.4427],[14.9906,44.4317],[14.9964,44.4281],[14.997,44.424],[14.9865,44.4069]]]}},{"type":"Feature","properties":{"depth":-20},"geometry":{"type":"MultiLineString","coordinates":[[[14.6344,44.4382],[14.6403,44.4385],[14.6396,44.4427],[14.6365,44.4445],[14.6327,44.4427],[14.6344,44.4382]]]}},{"type":"Feature","properties":{"depth":-20},"geometry":{"type":"MultiLineString","coordinates":[[[14.5573,44.4734],[14.5547,44.4781],[14.5573,44.4817],[14.5647,44.474],[14.5615,44.4721],[14.5573,44.4734]]]}},{"type":"Feature","properties":{"depth":-20},"geometry":{"type":"MultiLineString","coordinates":[[[14.301,44.4885],[14.3073,44.4876],[14.3177,44.4924],[14.326,44.5011],[14.3323,44.5052],[14.3358,44.5094],[14.3347,44.5135],[14.3281,44.5168],[14.3219,44.5159],[14.3031,44.5221],[14.2865,44.525],[14.2805,44.524],[14.2795,44.5219],[14.2846,44.5094],[14.2858,44.501],[14.2906,44.4953],[14.301,44.4885]]]}},{"type":"Feature","properties":{"depth":-20},"geometry":{"type":"MultiLineString","coordinates":[[[14.2719,44.5968],[14.276,44.5962],[14.2844,44.5979],[14.2874,44.601],[14.2891,44.6094],[14.2886,44.6135],[14.2844,44.6192],[14.2804,44.6219],[14.2732,44.6302],[14.2758,44.6448],[14.2906,44.6504],[14.2953,44.6573],[14.2972,44.6677],[14.2964,44.674],[14.2925,44.6823],[14.2823,44.691],[14.274,44.6913],[14.2594,44.685],[14.2531,44.681],[14.2441,44.6698],[14.2344,44.6663],[14.2302,44.6615],[14.233,44.649],[14.2316,44.6427],[14.2231,44.6344],[14.2221,44.6177],[14.226,44.6136],[14.2365,44.6123],[14.2552,44.6111],[14.2594,44.608],[14.2656,44.6003],[14.2719,44.5968]]]}},{"type":"Feature","properties":{"depth":-20},"geometry":{"type":"MultiLineString","coordinates":[[[14.5802,44.6593],[14.5844,44.658],[14.5887,44.6594],[14.5892,44.6656],[14.5823,44.6738],[14.574,44.6767],[14.5698,44.676],[14.5678,44.6698],[14.5698,44.6654],[14.5802,44.6593]]]}},{"type":"Feature","properties":{"depth":-20},"geometry":{"type":"MultiLineString","coordinates":[[[14.6823,44.684],[14.6885,44.6833],[14.6948,44.686],[14.6988,44.6906],[14.6981,44.6948],[14.693,44.699],[14.6823,44.702],[14.674,44.7063],[14.6677,44.7169],[14.6615,44.7228],[14.6573,44.7239],[14.6568,44.7198],[14.6635,44.7112],[14.6709,44.7073],[14.6773,44.699],[14.6799,44.6885],[14.6823,44.684]]]}},{"type":"Feature","properties":{"depth":-20},"geometry":{"type":"MultiLineString","coordinates":[[[14.8219,44.8185],[14.826,44.8177],[14.8302,44.8197],[14.8436,44.8323],[14.8459,44.8365],[14.846,44.8469],[14.8427,44.8507],[14.824,44.8539],[14.8156,44.8516],[14.8073,44.8547],[14.8031,44.8546],[14.7983,44.851],[14.7975,44.8469],[14.7999,44.8344],[14.8115,44.8268],[14.8219,44.8185]]]}},{"type":"Feature","properties":{"depth":-20},"geometry":{"type":"MultiLineString","coordinates":[[[13.674,44.9795],[13.6781,44.9794],[13.6816,44.9844],[13.6781,44.9875],[13.6735,44.9865],[13.6718,44.9823],[13.674,44.9795]]]}},{"type":"Feature","properties":{"depth":-20},"geometry":{"type":"MultiLineString","coordinates":[[[14.8323,44.9903],[14.8385,44.989],[14.8421,44.9927],[14.8409,44.9969],[14.8365,44.9992],[14.8323,44.9982],[14.8297,44.9948],[14.8323,44.9903]]]}},{"type":"Feature","properties":{"depth":-10},"geometry":{"type":"MultiLineString","coordinates":[[[12.4937,44.2],[12.4906,44.2028],[12.4802,44.2156],[12.474,44.2259],[12.4698,44.2302],[12.4573,44.2461],[12.451,44.2565],[12.4344,44.2814],[12.4221,44.301],[12.4094,44.3294],[12.4036,44.3385],[12.3918,44.3615],[12.3885,44.371],[12.3834,44.3823],[12.3781,44.396],[12.3677,44.4157],[12.3649,44.4198],[12.3573,44.4347],[12.3532,44.4406],[12.3422,44.4615],[12.3389,44.4802],[12.3344,44.4888],[12.3176,44.499],[12.3194,44.5031],[12.3327,44.5115],[12.3313,44.5615],[12.3365,44.5719],[12.3376,44.5906],[12.3364,44.6052],[12.3352,44.6094],[12.3254,44.624],[12.3135,44.6428],[12.3052,44.6573],[12.3021,44.6656],[12.3028,44.6844],[12.2983,44.6969],[12.2987,44.7031],[12.3044,44.7198],[12.3094,44.7285],[12.3156,44.7343],[12.3302,44.7405],[12.3365,44.7419],[12.3498,44.7469],[12.3781,44.7561],[12.3885,44.7589],[12.4135,44.7672],[12.4302,44.7761],[12.4577,44.799],[12.4665,44.8052],[12.4674,44.8135],[12.4719,44.8204],[12.4802,44.829],[12.4865,44.837],[12.4948,44.8454],[12.5026,44.851],[12.511,44.8719],[12.5219,44.8892],[12.5331,44.9031],[12.547,44.924],[12.5505,44.9302],[12.5551,44.9344],[12.5635,44.9394],[12.5661,44.9427],[12.5728,44.9573],[12.5731,44.9656],[12.569,44.9719],[12.5594,44.9754],[12.5427,44.9841],[12.5281,44.9948],[12.5219,44.9982],[12.4906,45.0105],[12.4824,45.0156],[12.473,45.024],[12.4642,45.0302],[12.449,45.039],[12.4421,45.0448],[12.4352,45.049],[12.401,45.0615],[12.3878,45.0719],[12.3771,45.0844],[12.3682,45.0969],[12.3602,45.1031],[12.3553,45.1115],[12.3552,45.115],[12.3615,45.1148],[12.3615,45.1227],[12.3594,45.1267],[12.3531,45.1236],[12.351,45.1253],[12.3494,45.1323],[12.3513,45.149],[12.3527,45.1531],[12.3581,45.1594],[12.3584,45.1635],[12.351,45.1763],[12.3317,45.1948],[12.3286,45.2031],[12.3309,45.224],[12.3281,45.2271],[12.3195,45.2302],[12.3182,45.2323],[12.3193,45.251],[12.3231,45.274],[12.3299,45.2885],[12.3406,45.303],[12.3461,45.3094],[12.351,45.3177],[12.3491,45.3219],[12.3377,45.3302],[12.3385,45.334],[12.3456,45.3365],[12.3503,45.3406],[12.3573,45.3516],[12.3635,45.358],[12.3765,45.3677],[12.3823,45.3733],[12.399,45.3811],[12.4302,45.3914],[12.4531,45.3986],[12.4573,45.401],[12.4599,45.4052],[12.4591,45.4115],[12.4617,45.4177],[12.4702,45.424],[12.4823,45.4282],[12.5156,45.4381],[12.5448,45.448],[12.574,45.4584],[12.5866,45.4635],[12.6031,45.4691],[12.6323,45.4802],[12.6514,45.4865],[12.6926,45.499],[12.7323,45.5099],[12.7469,45.5178],[12.7677,45.5243],[12.7885,45.5336],[12.8177,45.5474],[12.8385,45.5558],[12.8547,45.5615],[12.8656,45.5642],[12.8885,45.5727],[12.9031,45.5751],[12.9365,45.5866],[12.9573,45.5966],[12.974,45.6013],[12.9969,45.6054],[13.026,45.6083],[13.074,45.611],[13.0927,45.6138],[13.1156,45.6181],[13.1249,45.6219],[13.1352,45.6323],[13.1412,45.651],[13.1436,45.6552],[13.149,45.6597],[13.1602,45.6635],[13.1802,45.6694],[13.1906,45.6734],[13.2094,45.6765],[13.2469,45.6786],[13.2656,45.6773],[13.2823,45.674],[13.2948,45.6696],[13.3115,45.6653],[13.3344,45.6603],[13.351,45.6593],[13.376,45.6561],[13.4094,45.6533],[13.4406,45.6469],[13.451,45.6426],[13.4675,45.6406],[13.4719,45.6411],[13.4823,45.6459],[13.4948,45.6488],[13.511,45.6573],[13.5219,45.6656],[13.5245,45.6698],[13.5235,45.6844],[13.5289,45.6927],[13.5392,45.6969],[13.5531,45.6999],[13.5677,45.7045],[13.576,45.7086],[13.5872,45.7177],[13.5892,45.7219],[13.5886,45.7344],[13.5823,45.7422],[13.5682,45.751],[13.567,45.7552],[13.5708,45.7594],[13.5773,45.7615],[13.6073,45.7644],[13.6156,45.7643],[13.626,45.7622],[13.6333,45.7594],[13.6469,45.7505],[13.6531,45.7494],[13.6564,45.7448],[13.674,45.7313],[13.6865,45.7225],[13.6927,45.7198],[13.7052,45.7089],[13.7115,45.6992],[13.7305,45.6885],[13.7406,45.6798],[13.7507,45.6677],[13.7541,45.6594],[13.7527,45.6552],[13.7448,45.6488],[13.74,45.6406],[13.7413,45.6344],[13.7448,45.6309],[13.7594,45.6249],[13.7653,45.6198],[13.7663,45.6156],[13.7635,45.6124],[13.749,45.6135],[13.74,45.6101]]]}},{"type":"Feature","properties":{"depth":-10},"geometry":{"type":"MultiLineString","coordinates":[[[14.8106,44.2615],[14.8094,44.2656],[14.8026,44.2719],[14.7959,44.2729]]]}},{"type":"Feature","properties":{"depth":-10},"geometry":{"type":"MultiLineString","coordinates":[[[15.2588,44.2621],[15.2647,44.2719],[15.2633,44.276],[15.251,44.2806],[15.2448,44.2859],[15.2344,44.2888],[15.2242,44.2862]]]}},{"type":"Feature","properties":{"depth":-10},"geometry":{"type":"MultiLineString","coordinates":[[[14.7465,44.264],[14.7443,44.2615],[14.7469,44.2568],[14.7594,44.2559],[14.7554,44.2487]]]}},{"type":"Feature","properties":{"depth":-10},"geometry":{"type":"MultiLineString","coordinates":[[[14.7177,44.2739],[14.726,44.2717],[14.7298,44.2781],[14.7239,44.2823]]]}},{"type":"Feature","properties":{"depth":-10},"geometry":{"type":"MultiLineString","coordinates":[[[15.281,44.2773],[15.2802,44.2613],[15.276,44.2594],[15.2604,44.2604]]]}},{"type":"Feature","properties":{"depth":-10},"geometry":{"type":"MultiLineString","coordinates":[[[14.6936,44.2814],[14.6991,44.274],[14.7031,44.2713],[14.7096,44.2719]]]}},{"type":"Feature","properties":{"depth":-10},"geometry":{"type":"MultiLineString","coordinates":[[[15.3529,44.2823],[15.3398,44.2927],[15.3356,44.299],[15.3289,44.3024]]]}},{"type":"Feature","properties":{"depth":-10},"geometry":{"type":"MultiLineString","coordinates":[[[15.0991,44.2948],[15.1104,44.2885],[15.114,44.2781],[15.1178,44.274],[15.1135,44.2679],[15.1073,44.2647],[15.1077,44.2573],[15.1115,44.2541],[15.1177,44.2522],[15.1214,44.249],[15.1246,44.2427],[15.1302,44.2369],[15.1552,44.2255],[15.1574,44.2219],[15.1573,44.215]]]}},{"type":"Feature","properties":{"depth":-10},"geometry":{"type":"MultiLineString","coordinates":[[[15.4371,44.2941],[15.4393,44.2823],[15.4448,44.2754],[15.456,44.2698],[15.4513,44.2615]]]}},{"type":"Feature","properties":{"depth":-10},"geometry":{"type":"MultiLineString","coordinates":[[[15.2383,44.2972],[15.2385,44.3025],[15.2344,44.3046],[15.2321,44.3094],[15.2387,44.3156],[15.239,44.3177],[15.2344,44.3235],[15.2302,44.324]]]}},{"type":"Feature","properties":{"depth":-10},"geometry":{"type":"MultiLineString","coordinates":[[[15.2874,44.299],[15.2964,44.2885],[15.2948,44.2845],[15.2865,44.284],[15.2822,44.2802]]]}},{"type":"Feature","properties":{"depth":-10},"geometry":{"type":"MultiLineString","coordinates":[[[15.1859,44.3026],[15.176,44.3023],[15.1719,44.3037],[15.1652,44.3094],[15.1698,44.3131],[15.1823,44.3109],[15.1927,44.3116],[15.1969,44.3088],[15.201,44.2994],[15.2031,44.2979],[15.2115,44.2972],[15.2214,44.3016]]]}},{"type":"Feature","properties":{"depth":-10},"geometry":{"type":"MultiLineString","coordinates":[[[14.663,44.3078],[14.6642,44.3115],[14.6615,44.3183],[14.6573,44.3195],[14.6533,44.3175]]]}},{"type":"Feature","properties":{"depth":-10},"geometry":{"type":"MultiLineString","coordinates":[[[14.6148,44.3281],[14.6171,44.3198],[14.6262,44.3135],[14.6427,44.3047],[14.651,44.3035],[14.6571,44.301],[14.6624,44.3031],[14.6629,44.3066]]]}},{"type":"Feature","properties":{"depth":-10},"geometry":{"type":"MultiLineString","coordinates":[[[15.226,44.3262],[15.2344,44.3306],[15.2427,44.328],[15.2481,44.3198],[15.2552,44.3175],[15.2698,44.3092],[15.2727,44.3106]]]}},{"type":"Feature","properties":{"depth":-10},"geometry":{"type":"MultiLineString","coordinates":[[[14.6914,44.3294],[14.6923,44.326],[14.701,44.3177],[14.7052,44.3114],[14.7094,44.308],[14.7135,44.3086],[14.7176,44.3135],[14.7202,44.326],[14.7183,44.3302],[14.7115,44.3369],[14.7073,44.3369],[14.6927,44.3323]]]}},{"type":"Feature","properties":{"depth":-10},"geometry":{"type":"MultiLineString","coordinates":[[[15.3594,44.3302],[15.3668,44.3177],[15.376,44.3146],[15.3865,44.3158],[15.3948,44.3143],[15.4198,44.3027],[15.4281,44.3016]]]}},{"type":"Feature","properties":{"depth":-10},"geometry":{"type":"MultiLineString","coordinates":[[[14.5865,44.3364],[14.5889,44.3302],[14.5953,44.326],[14.6012,44.324],[14.6053,44.326],[14.6072,44.3302]]]}},{"type":"Feature","properties":{"depth":-10},"geometry":{"type":"MultiLineString","coordinates":[[[14.6092,44.3429],[14.6089,44.3469],[14.6058,44.351],[14.6,44.3552],[14.5932,44.3568]]]}},{"type":"Feature","properties":{"depth":-10},"geometry":{"type":"MultiLineString","coordinates":[[[15.3081,44.3503],[15.3094,44.335],[15.3115,44.3329],[15.3156,44.3357],[15.324,44.3448]]]}},{"type":"Feature","properties":{"depth":-10},"geometry":{"type":"MultiLineString","coordinates":[[[15.2241,44.3635],[15.2188,44.3698],[15.2135,44.3735],[15.2027,44.3781]]]}},{"type":"Feature","properties":{"depth":-10},"geometry":{"type":"MultiLineString","coordinates":[[[15.2614,44.3782],[15.2657,44.3698],[15.2698,44.3652],[15.2926,44.3552],[15.299,44.353],[15.3073,44.3524]]]}},{"type":"Feature","properties":{"depth":-10},"geometry":{"type":"MultiLineString","coordinates":[[[15.0939,44.3906],[15.108,44.3802],[15.1086,44.376],[15.1031,44.3721],[15.0948,44.3729],[15.0887,44.3698],[15.087,44.3635],[15.0906,44.353],[15.095,44.3469],[15.0906,44.3425],[15.0829,44.3281],[15.0785,44.324],[15.0656,44.3236],[15.0594,44.3225],[15.0539,44.3232]]]}},{"type":"Feature","properties":{"depth":-10},"geometry":{"type":"MultiLineString","coordinates":[[[15.1781,44.3902],[15.1806,44.3969],[15.176,44.4002],[15.1629,44.4073],[15.149,44.4121],[15.1448,44.4177],[15.1305,44.4323],[15.126,44.435],[15.1222,44.4344]]]}},{"type":"Feature","properties":{"depth":-10},"geometry":{"type":"MultiLineString","coordinates":[[[14.7578,44.4162],[14.7594,44.4092],[14.7656,44.4068],[14.7674,44.4031],[14.7674,44.3945]]]}},{"type":"Feature","properties":{"depth":-10},"geometry":{"type":"MultiLineString","coordinates":[[[14.9531,44.4157],[14.951,44.4211],[14.9448,44.4281],[14.9334,44.427]]]}},{"type":"Feature","properties":{"depth":-10},"geometry":{"type":"MultiLineString","coordinates":[[[14.9224,44.4198],[14.926,44.4134],[14.932,44.4094],[14.9401,44.4078]]]}},{"type":"Feature","properties":{"depth":-10},"geometry":{"type":"MultiLineString","coordinates":[[[15.2151,44.4245],[15.2111,44.4198],[15.2126,44.4156],[15.224,44.4095],[15.2276,44.4099]]]}},{"type":"Feature","properties":{"depth":-10},"geometry":{"type":"MultiLineString","coordinates":[[[14.5753,44.4441],[14.5752,44.4365],[14.5781,44.4341],[14.5844,44.4385],[14.5845,44.4448],[14.5823,44.4488],[14.5677,44.4667],[14.5598,44.4673]]]}},{"type":"Feature","properties":{"depth":-10},"geometry":{"type":"MultiLineString","coordinates":[[[14.5343,44.447],[14.5372,44.4406],[14.5469,44.4359],[14.551,44.4373],[14.5525,44.4406]]]}},{"type":"Feature","properties":{"depth":-10},"geometry":{"type":"MultiLineString","coordinates":[[[15.0469,44.4611],[15.0461,44.4531],[15.0427,44.452],[15.0302,44.4592],[15.0252,44.4635],[15.0182,44.4673]]]}},{"type":"Feature","properties":{"depth":-10},"geometry":{"type":"MultiLineString","coordinates":[[[14.5588,44.4671],[14.5521,44.474],[14.5493,44.4823],[14.5536,44.4943]]]}},{"type":"Feature","properties":{"depth":-10},"geometry":{"type":"MultiLineString","coordinates":[[[14.8729,44.4709],[14.8778,44.474],[14.882,44.4802],[14.881,44.4885],[14.8776,44.4927],[14.8719,44.4955],[14.8635,44.4949],[14.8573,44.4922],[14.8546,44.4885]]]}},{"type":"Feature","properties":{"depth":-10},"geometry":{"type":"MultiLineString","coordinates":[[[14.5155,44.4761],[14.5148,44.4719],[14.5198,44.4676],[14.5323,44.4667],[14.5365,44.4695],[14.5413,44.4788]]]}},{"type":"Feature","properties":{"depth":-10},"geometry":{"type":"MultiLineString","coordinates":[[[14.9986,44.4826],[14.9926,44.4927],[14.9844,44.5014],[14.9781,44.5132],[14.974,44.5174],[14.9656,44.5158],[14.9594,44.517],[14.9456,44.5281],[14.9344,44.5396],[14.9256,44.5427],[14.9281,44.5446],[14.9421,44.5391]]]}},{"type":"Feature","properties":{"depth":-10},"geometry":{"type":"MultiLineString","coordinates":[[[15.1193,44.489],[15.1193,44.4844],[15.1219,44.48],[15.1365,44.4679],[15.1427,44.4648],[15.1515,44.4573],[15.1635,44.4524],[15.1799,44.4427],[15.1788,44.4469]]]}},{"type":"Feature","properties":{"depth":-10},"geometry":{"type":"MultiLineString","coordinates":[[[15.0096,44.4987],[15.0052,44.4971],[15.0067,44.4885],[15.0115,44.4848],[15.0219,44.4838],[15.0275,44.4906],[15.0219,44.495]]]}},{"type":"Feature","properties":{"depth":-10},"geometry":{"type":"MultiLineString","coordinates":[[[14.551,44.5001],[14.5448,44.498],[14.5406,44.5018],[14.5312,44.5052],[14.5279,44.5135],[14.5219,44.5166],[14.5156,44.522],[14.5128,44.5219]]]}},{"type":"Feature","properties":{"depth":-10},"geometry":{"type":"MultiLineString","coordinates":[[[14.29,44.5079],[14.2899,44.5031],[14.2987,44.4948],[14.3031,44.4925],[14.3084,44.4927],[14.3177,44.4986],[14.3204,44.5031]]]}},{"type":"Feature","properties":{"depth":-10},"geometry":{"type":"MultiLineString","coordinates":[[[14.4631,44.5161],[14.4644,44.5115],[14.4715,44.5073],[14.4802,44.5041],[14.4839,44.501],[14.4863,44.4948],[14.4927,44.4889],[14.5019,44.4865]]]}},{"type":"Feature","properties":{"depth":-10},"geometry":{"type":"MultiLineString","coordinates":[[[14.8986,44.526],[14.9031,44.5218],[14.9145,44.5073],[14.9159,44.5031],[14.9115,44.4997],[14.897,44.5009]]]}},{"type":"Feature","properties":{"depth":-10},"geometry":{"type":"MultiLineString","coordinates":[[[14.4729,44.5375],[14.4698,44.5448],[14.4615,44.5506],[14.4573,44.5554],[14.451,44.5592],[14.446,44.5656],[14.4385,44.569],[14.4289,44.5844],[14.424,44.5979],[14.4219,44.6007],[14.4177,44.601],[14.4151,44.5974]]]}},{"type":"Feature","properties":{"depth":-10},"geometry":{"type":"MultiLineString","coordinates":[[[14.4214,44.5474],[14.4218,44.5448],[14.4302,44.5386],[14.4375,44.5406],[14.4365,44.5453]]]}},{"type":"Feature","properties":{"depth":-10},"geometry":{"type":"MultiLineString","coordinates":[[[14.8684,44.5615],[14.8673,44.549],[14.876,44.5414],[14.8813,44.5354]]]}},{"type":"Feature","properties":{"depth":-10},"geometry":{"type":"MultiLineString","coordinates":[[[14.9656,44.5607],[14.9656,44.57],[14.9635,44.5739],[14.9588,44.5767]]]}},{"type":"Feature","properties":{"depth":-10},"geometry":{"type":"MultiLineString","coordinates":[[[14.3248,44.5648],[14.3243,44.5615],[14.3271,44.5573],[14.3344,44.5547],[14.339,44.5573],[14.3392,44.56]]]}},{"type":"Feature","properties":{"depth":-10},"geometry":{"type":"MultiLineString","coordinates":[[[14.2983,44.5871],[14.2972,44.5844],[14.306,44.576],[14.3115,44.5746],[14.3132,44.5764]]]}},{"type":"Feature","properties":{"depth":-10},"geometry":{"type":"MultiLineString","coordinates":[[[14.8558,44.6005],[14.856,44.6052],[14.8531,44.6074],[14.8448,44.6097],[14.8408,44.6156],[14.8344,44.6195],[14.8226,44.6302],[14.8112,44.6385],[14.8072,44.6448],[14.797,44.6552],[14.7844,44.6665],[14.7698,44.6824],[14.7469,44.6978],[14.7406,44.7028],[14.736,44.7036]]]}},{"type":"Feature","properties":{"depth":-10},"geometry":{"type":"MultiLineString","coordinates":[[[14.4106,44.6019],[14.4098,44.6115],[14.4073,44.6168],[14.4031,44.6192],[14.4013,44.6177]]]}},{"type":"Feature","properties":{"depth":-10},"geometry":{"type":"MultiLineString","coordinates":[[[14.2669,44.6101],[14.2677,44.6052],[14.274,44.6009],[14.2781,44.6007],[14.2816,44.6031]]]}},{"type":"Feature","properties":{"depth":-10},"geometry":{"type":"MultiLineString","coordinates":[[[14.2469,44.6355],[14.2344,44.6341],[14.2307,44.6323],[14.2308,44.624],[14.2344,44.6204]]]}},{"type":"Feature","properties":{"depth":-10},"geometry":{"type":"MultiLineString","coordinates":[[[14.3549,44.6445],[14.3535,44.6406],[14.3554,44.6365],[14.3656,44.6279],[14.3698,44.6256],[14.3802,44.6232]]]}},{"type":"Feature","properties":{"depth":-10},"geometry":{"type":"MultiLineString","coordinates":[[[14.2716,44.6573],[14.2733,44.651],[14.2781,44.65],[14.2891,44.6552],[14.2901,44.6594],[14.2869,44.6635],[14.2906,44.6655],[14.2927,44.67],[14.2885,44.6789],[14.2847,44.6799]]]}},{"type":"Feature","properties":{"depth":-10},"geometry":{"type":"MultiLineString","coordinates":[[[14.7348,44.6882],[14.7365,44.6844],[14.7448,44.6757],[14.749,44.674]]]}},{"type":"Feature","properties":{"depth":-10},"geometry":{"type":"MultiLineString","coordinates":[[[14.8688,44.7125],[14.8694,44.7177],[14.8677,44.7231],[14.8635,44.7249],[14.8611,44.7319]]]}},{"type":"Feature","properties":{"depth":-10},"geometry":{"type":"MultiLineString","coordinates":[[[14.8159,44.7635],[14.8118,44.7698],[14.8031,44.7764],[14.7987,44.7763]]]}},{"type":"Feature","properties":{"depth":-10},"geometry":{"type":"MultiLineString","coordinates":[[[13.948,44.7885],[13.9537,44.7885],[13.9586,44.7969],[13.9656,44.7995],[13.976,44.798],[13.9802,44.7962],[13.9837,44.7975]]]}},{"type":"Feature","properties":{"depth":-10},"geometry":{"type":"MultiLineString","coordinates":[[[14.7794,44.7893],[14.7773,44.7948],[14.7594,44.8101],[14.7531,44.813],[14.7479,44.8125]]]}},{"type":"Feature","properties":{"depth":-10},"geometry":{"type":"MultiLineString","coordinates":[[[14.6948,44.7906],[14.6919,44.799],[14.6865,44.8019],[14.6833,44.7979]]]}},{"type":"Feature","properties":{"depth":-10},"geometry":{"type":"MultiLineString","coordinates":[[[13.9245,44.7933],[13.9323,44.803],[13.9365,44.8045],[13.9425,44.799],[13.9455,44.7899]]]}},{"type":"Feature","properties":{"depth":-10},"geometry":{"type":"MultiLineString","coordinates":[[[14.8031,44.8405],[14.805,44.8344],[14.8135,44.8297],[14.8198,44.8242],[14.826,44.8215],[14.8302,44.8237],[14.8398,44.8344],[14.8427,44.8406],[14.8427,44.8449],[14.839,44.8465]]]}},{"type":"Feature","properties":{"depth":-10},"geometry":{"type":"MultiLineString","coordinates":[[[14.6781,44.841],[14.6816,44.8281],[14.6952,44.8135]]]}},{"type":"Feature","properties":{"depth":-10},"geometry":{"type":"MultiLineString","coordinates":[[[14.7547,44.8573],[14.7552,44.852],[14.7698,44.8473],[14.7765,44.851],[14.7772,44.8543]]]}},{"type":"Feature","properties":{"depth":-10},"geometry":{"type":"MultiLineString","coordinates":[[[14.7825,44.8613],[14.776,44.872],[14.7677,44.8753],[14.751,44.8856],[14.749,44.8844]]]}},{"type":"Feature","properties":{"depth":-10},"geometry":{"type":"MultiLineString","coordinates":[[[14.7395,44.8689],[14.7356,44.8635],[14.7375,44.8594],[14.7427,44.8559],[14.7483,44.8573]]]}},{"type":"Feature","properties":{"depth":-10},"geometry":{"type":"MultiLineString","coordinates":[[[14.7926,44.9011],[14.797,44.8969],[14.8115,44.8916],[14.8198,44.8878],[14.824,44.8872],[14.8341,44.8823],[14.8385,44.8817],[14.841,44.8844],[14.8385,44.8932],[14.833,44.901],[14.8311,44.9073],[14.8281,44.9105],[14.8205,44.9129]]]}},{"type":"Feature","properties":{"depth":-10},"geometry":{"type":"MultiLineString","coordinates":[[[13.7819,44.9139],[13.7786,44.9198],[13.7719,44.9205],[13.7635,44.9255],[13.7556,44.9256]]]}},{"type":"Feature","properties":{"depth":-10},"geometry":{"type":"MultiLineString","coordinates":[[[14.8154,44.9158],[14.8146,44.9198],[14.8036,44.926],[14.798,44.9249]]]}},{"type":"Feature","properties":{"depth":-10},"geometry":{"type":"MultiLineString","coordinates":[[[13.7339,44.9402],[13.7302,44.9448],[13.7292,44.951],[13.726,44.9542],[13.7177,44.952],[13.7094,44.9521],[13.7052,44.9497],[13.7036,44.9448],[13.7054,44.9385],[13.7105,44.9323],[13.7132,44.926],[13.71,44.9177],[13.7113,44.9115],[13.7156,44.907],[13.726,44.9022],[13.7328,44.9031],[13.7339,44.9068]]]}},{"type":"Feature","properties":{"depth":-10},"geometry":{"type":"MultiLineString","coordinates":[[[14.7056,44.9423],[14.7094,44.9381],[14.726,44.9349],[14.7292,44.9353]]]}},{"type":"Feature","properties":{"depth":-10},"geometry":{"type":"MultiLineString","coordinates":[[[14.5775,44.9442],[14.5818,44.9469],[14.5802,44.9514],[14.574,44.9548],[14.5692,44.951],[14.5712,44.9483]]]}},{"type":"Feature","properties":{"depth":-10},"geometry":{"type":"MultiLineString","coordinates":[[[14.5537,44.9609],[14.5607,44.974],[14.5613,44.9823],[14.5596,44.9844],[14.5531,44.9859],[14.5427,44.984],[14.5385,44.988],[14.5323,44.9877],[14.526,44.9894],[14.5229,44.9875]]]}},{"type":"Feature","properties":{"depth":-10},"geometry":{"type":"MultiLineString","coordinates":[[[14.5096,44.9677],[14.5157,44.9635],[14.5205,44.9573],[14.5344,44.9509],[14.5393,44.9524]]]}},{"type":"Feature","properties":{"depth":-10},"geometry":{"type":"MultiLineString","coordinates":[[[14.7607,44.9677],[14.7625,44.9635],[14.7671,44.9615],[14.774,44.9608],[14.7823,44.9625],[14.7948,44.9605],[14.801,44.9609],[14.8087,44.9594],[14.8219,44.9673],[14.8245,44.974],[14.8219,44.9805],[14.8156,44.9908],[14.8105,44.9916]]]}},{"type":"Feature","properties":{"depth":-10},"geometry":{"type":"MultiLineString","coordinates":[[[14.6186,44.9772],[14.6219,44.9727],[14.6385,44.9677],[14.6531,44.9593],[14.6571,44.9634]]]}},{"type":"Feature","properties":{"depth":-10},"geometry":{"type":"MultiLineString","coordinates":[[[13.7509,44.9844],[13.7573,44.9791],[13.7626,44.9719],[13.7729,44.9615],[13.7794,44.949],[13.7897,44.9385],[13.7934,44.9302],[13.794,44.924],[13.7972,44.9135],[13.7975,44.9073],[13.7959,44.901],[13.8001,44.8948]]]}},{"type":"Feature","properties":{"depth":-10},"geometry":{"type":"MultiLineString","coordinates":[[[14.0469,45.0121],[14.0532,45.0156],[14.0555,45.0135],[14.0527,45.0073],[14.0552,45.0012],[14.0616,45.0009]]]}},{"type":"Feature","properties":{"depth":-10},"geometry":{"type":"MultiLineString","coordinates":[[[13.6541,45.0635],[13.6552,45.0573],[13.6552,45.0465],[13.659,45.0365],[13.6656,45.0265],[13.673,45.0219],[13.6725,45.0135],[13.676,45.0094],[13.6802,45.0085],[13.6906,45.0124],[13.7014,45.0115],[13.704,45.0052],[13.6977,44.9927],[13.6996,44.9885],[13.7073,44.9867],[13.7135,44.9938],[13.7239,44.9885],[13.7302,44.9878],[13.7358,44.985]]]}},{"type":"Feature","properties":{"depth":-10},"geometry":{"type":"MultiLineString","coordinates":[[[13.6287,45.065],[13.624,45.0622],[13.6156,45.0616],[13.6065,45.0531],[13.6054,45.049],[13.6071,45.0406],[13.6115,45.036],[13.6156,45.0352],[13.6281,45.0381],[13.6365,45.0423],[13.6442,45.0531],[13.6453,45.0594],[13.6405,45.0634]]]}},{"type":"Feature","properties":{"depth":-10},"geometry":{"type":"MultiLineString","coordinates":[[[13.5934,45.1719],[13.5963,45.1635],[13.5998,45.1594],[13.5993,45.1534]]]}},{"type":"Feature","properties":{"depth":-10},"geometry":{"type":"MultiLineString","coordinates":[[[14.5687,45.2397],[14.5719,45.2432],[14.5781,45.2436],[14.5844,45.2407],[14.5903,45.2431]]]}},{"type":"Feature","properties":{"depth":-10},"geometry":{"type":"MultiLineString","coordinates":[[[13.5879,45.2531],[13.5912,45.2448],[13.5907,45.2323],[13.5864,45.226]]]}},{"type":"Feature","properties":{"depth":-10},"geometry":{"type":"MultiLineString","coordinates":[[[13.5926,45.2823],[13.5865,45.2777],[13.5749,45.2844],[13.5788,45.29]]]}},{"type":"Feature","properties":{"depth":-10},"geometry":{"type":"MultiLineString","coordinates":[[[13.5704,45.2962],[13.5698,45.2917],[13.5713,45.2844],[13.568,45.276],[13.5764,45.2719],[13.5732,45.2649]]]}},{"type":"Feature","properties":{"depth":-10},"geometry":{"type":"MultiLineString","coordinates":[[[13.4901,45.4849],[13.4936,45.4781],[13.4969,45.4677],[13.5032,45.4615],[13.5058,45.4531],[13.5018,45.4448],[13.5021,45.4406],[13.5094,45.4344],[13.5133,45.426],[13.5135,45.4156],[13.5219,45.4088],[13.5276,45.399],[13.5272,45.3885],[13.5324,45.3802],[13.5372,45.3698],[13.5381,45.3594],[13.5348,45.3552],[13.5346,45.351],[13.5374,45.3448],[13.5365,45.3302],[13.5406,45.3253],[13.5448,45.3236],[13.5485,45.3177],[13.5488,45.3135],[13.5594,45.3109],[13.5649,45.3073],[13.5699,45.297]]]}},{"type":"Feature","properties":{"depth":-10},"geometry":{"type":"MultiLineString","coordinates":[[[13.5031,45.5018],[13.4969,45.4988],[13.4906,45.4918],[13.4891,45.487]]]}},{"type":"Feature","properties":{"depth":-10},"geometry":{"type":"MultiLineString","coordinates":[[[13.5656,45.5264],[13.5615,45.5219],[13.5655,45.501],[13.5612,45.4969],[13.5531,45.4927]]]}},{"type":"Feature","properties":{"depth":-10},"geometry":{"type":"MultiLineString","coordinates":[[[13.601,45.5354],[13.5969,45.5312],[13.5906,45.5307],[13.5822,45.526]]]}},{"type":"Feature","properties":{"depth":-10},"geometry":{"type":"MultiLineString","coordinates":[[[13.624,45.5365],[13.6219,45.5404],[13.6135,45.5418],[13.606,45.5406],[13.6037,45.5385]]]}},{"type":"Feature","properties":{"depth":-10},"geometry":{"type":"MultiLineString","coordinates":[[[13.7081,45.5936],[13.7031,45.5923],[13.7006,45.5885],[13.7052,45.5814],[13.7253,45.5698],[13.7262,45.5656],[13.724,45.5604],[13.7177,45.5552],[13.7073,45.554],[13.699,45.5565],[13.6865,45.5553],[13.6809,45.5531],[13.6719,45.5472],[13.6525,45.5448],[13.6463,45.5427],[13.6417,45.5365],[13.6329,45.5338]]]}},{"type":"Feature","properties":{"depth":-10},"geometry":{"type":"MultiLineString","coordinates":[[[15.496,44.2],[15.4961,44.2031],[15.5031,44.207],[15.526,44.2116],[15.5385,44.2118],[15.549,44.2102],[15.5594,44.2046],[15.574,44.2036],[15.5781,44.2021],[15.5811,44.2]]]}},{"type":"Feature","properties":{"depth":-10},"geometry":{"type":"MultiLineString","coordinates":[[[14.7385,44.2425],[14.7454,44.2469],[14.7427,44.25],[14.7385,44.2482],[14.7385,44.2425]]]}},{"type":"Feature","properties":{"depth":-10},"geometry":{"type":"MultiLineString","coordinates":[[[15.5156,44.2508],[15.5094,44.2526],[15.501,44.2527],[15.4911,44.2594],[15.4927,44.2637],[15.4969,44.2639],[15.5115,44.2688],[15.5219,44.2667],[15.5279,44.2573],[15.5273,44.2531],[15.5198,44.2502],[15.5156,44.2508]]]}},{"type":"Feature","properties":{"depth":-10},"geometry":{"type":"MultiLineString","coordinates":[[[15.4635,44.2612],[15.4594,44.2677],[15.4656,44.2713],[15.4698,44.2706],[15.4731,44.2656],[15.4731,44.2615],[15.4698,44.2597],[15.4635,44.2612]]]}},{"type":"Feature","properties":{"depth":-10},"geometry":{"type":"MultiLineString","coordinates":[[[12.4344,45.4131],[12.4302,45.4156],[12.4302,45.4185],[12.4364,45.4177],[12.4386,45.4135],[12.4344,45.4131]]]}},{"type":"Feature","properties":{"depth":-5},"geometry":{"type":"MultiLineString","coordinates":[[[12.4208,44.2],[12.4094,44.2182],[12.4046,44.224],[12.3962,44.2385],[12.3823,44.2535],[12.3698,44.268],[12.3677,44.2718],[12.3614,44.2906],[12.3581,44.3115],[12.3562,44.3177],[12.3484,44.3365],[12.3427,44.3455],[12.3344,44.363],[12.325,44.401],[12.3217,44.4115],[12.3159,44.4219],[12.3038,44.4531],[12.3051,44.4615],[12.302,44.4719],[12.2965,44.4823],[12.2959,44.4865],[12.2987,44.4927],[12.2985,44.4969],[12.2927,44.5052],[12.2904,44.5135],[12.2902,44.5385],[12.2923,44.5615],[12.2953,44.574],[12.2963,44.5948],[12.2952,44.6115],[12.2897,44.6281],[12.2855,44.6365],[12.2748,44.6448],[12.2635,44.6616],[12.2594,44.6695],[12.2531,44.6892],[12.2518,44.6969],[12.2506,44.7135],[12.2531,44.7289],[12.2573,44.7395],[12.2635,44.7482],[12.2781,44.7629],[12.2885,44.769],[12.3052,44.7754],[12.3135,44.7771],[12.3365,44.777],[12.3469,44.7756],[12.3698,44.7739],[12.3865,44.7743],[12.4073,44.7784],[12.424,44.7861],[12.4357,44.7948],[12.4406,44.8004],[12.4531,44.8118],[12.4629,44.8219],[12.4719,44.8338],[12.4834,44.8469],[12.499,44.8784],[12.5081,44.8906],[12.5132,44.899],[12.5177,44.9115],[12.5253,44.926],[12.5363,44.9385],[12.5401,44.9448],[12.5448,44.9495],[12.5552,44.9543],[12.5633,44.9615],[12.5649,44.9656],[12.5634,44.9698],[12.5448,44.9771],[12.524,44.9904],[12.5073,44.9989],[12.4878,45.001],[12.474,45.0069],[12.4656,45.0152],[12.4535,45.024],[12.4281,45.0394],[12.3969,45.0564],[12.3865,45.063],[12.374,45.0736],[12.3635,45.0837],[12.3541,45.0948],[12.3509,45.101],[12.3397,45.1135],[12.3338,45.126],[12.3344,45.1364],[12.344,45.1573],[12.344,45.1615],[12.3388,45.1698],[12.3281,45.1801],[12.3198,45.1918],[12.3149,45.201],[12.3109,45.2177],[12.3123,45.2281],[12.3104,45.2365],[12.3064,45.2469],[12.3056,45.2552],[12.3086,45.2781],[12.3108,45.2865],[12.3168,45.299],[12.326,45.3077],[12.3324,45.3198],[12.3326,45.3264]]]}},{"type":"Feature","properties":{"depth":-5},"geometry":{"type":"MultiLineString","coordinates":[[[15.4915,44.2],[15.4907,44.2031],[15.4948,44.2069],[15.5052,44.2106],[15.5115,44.2112],[15.526,44.2152],[15.5406,44.2144],[15.551,44.2127],[15.5615,44.2076],[15.5757,44.2056]]]}},{"type":"Feature","properties":{"depth":-5},"geometry":{"type":"MultiLineString","coordinates":[[[15.2903,44.2635],[15.2918,44.2552],[15.2885,44.2516],[15.2817,44.2496]]]}},{"type":"Feature","properties":{"depth":-5},"geometry":{"type":"MultiLineString","coordinates":[[[15.2531,44.2656],[15.2563,44.2698],[15.2556,44.274],[15.249,44.2765],[15.2427,44.2825],[15.2365,44.2846],[15.23,44.2823]]]}},{"type":"Feature","properties":{"depth":-5},"geometry":{"type":"MultiLineString","coordinates":[[[15.1993,44.2723],[15.207,44.2635],[15.2054,44.2573],[15.199,44.2534],[15.1927,44.2525],[15.1802,44.2566],[15.1705,44.2615],[15.1552,44.2751],[15.1448,44.2804],[15.1401,44.2885],[15.1361,44.2909]]]}},{"type":"Feature","properties":{"depth":-5},"geometry":{"type":"MultiLineString","coordinates":[[[15.1576,44.324],[15.1569,44.3198],[15.1615,44.3176],[15.1777,44.3161]]]}},{"type":"Feature","properties":{"depth":-5},"geometry":{"type":"MultiLineString","coordinates":[[[15.3675,44.3283],[15.3719,44.3199],[15.376,44.3187],[15.3804,44.3219],[15.3786,44.326]]]}},{"type":"Feature","properties":{"depth":-5},"geometry":{"type":"MultiLineString","coordinates":[[[15.1419,44.4164],[15.1302,44.429],[15.1273,44.431]]]}},{"type":"Feature","properties":{"depth":-5},"geometry":{"type":"MultiLineString","coordinates":[[[14.5189,44.4727],[14.5219,44.4701],[14.5302,44.4706],[14.5343,44.474],[14.5333,44.477]]]}},{"type":"Feature","properties":{"depth":-5},"geometry":{"type":"MultiLineString","coordinates":[[[14.8704,44.4754],[14.874,44.476],[14.8762,44.4802],[14.8719,44.4875],[14.8615,44.4896],[14.8593,44.4845]]]}},{"type":"Feature","properties":{"depth":-5},"geometry":{"type":"MultiLineString","coordinates":[[[14.8063,44.6396],[14.804,44.6448],[14.796,44.6531],[14.7802,44.6676],[14.7719,44.6772],[14.7655,44.6824]]]}},{"type":"Feature","properties":{"depth":-5},"geometry":{"type":"MultiLineString","coordinates":[[[14.6834,44.8353],[14.6844,44.8307],[14.6884,44.8281],[14.6951,44.8198],[14.7023,44.8198]]]}},{"type":"Feature","properties":{"depth":-5},"geometry":{"type":"MultiLineString","coordinates":[[[13.7326,44.9365],[13.7274,44.9427],[13.724,44.9492],[13.7156,44.9468],[13.7079,44.9469],[13.7074,44.9427],[13.7113,44.9385],[13.7185,44.9281],[13.7201,44.924],[13.7136,44.9177],[13.7156,44.9106],[13.726,44.9054],[13.7298,44.9056]]]}},{"type":"Feature","properties":{"depth":-5},"geometry":{"type":"MultiLineString","coordinates":[[[14.5506,44.9736],[14.5532,44.9719],[14.5547,44.9781],[14.5509,44.9802],[14.5485,44.976]]]}},{"type":"Feature","properties":{"depth":-5},"geometry":{"type":"MultiLineString","coordinates":[[[13.6219,45.0594],[13.6158,45.0573],[13.6112,45.051],[13.6096,45.0448],[13.6111,45.0406],[13.6177,45.0387],[13.6254,45.0406],[13.6348,45.0448],[13.642,45.0552],[13.6409,45.0594],[13.6278,45.0597]]]}},{"type":"Feature","properties":{"depth":-5},"geometry":{"type":"MultiLineString","coordinates":[[[13.6598,45.0631],[13.6576,45.0531],[13.6579,45.049],[13.662,45.0427],[13.6656,45.0318],[13.6698,45.0284],[13.6806,45.026],[13.6813,45.024],[13.6781,45.0184],[13.678,45.0135],[13.6823,45.0121],[13.6927,45.0161],[13.7031,45.0153],[13.7066,45.0115],[13.7094,45.0021],[13.7177,44.9981],[13.7219,44.9939],[13.7302,44.9934]]]}},{"type":"Feature","properties":{"depth":-5},"geometry":{"type":"MultiLineString","coordinates":[[[12.3302,45.3393],[12.3367,45.3385],[12.3389,45.3448],[12.3438,45.3531]]]}},{"type":"Feature","properties":{"depth":-5},"geometry":{"type":"MultiLineString","coordinates":[[[12.4374,45.4249],[12.4448,45.4259],[12.4531,45.4308],[12.4656,45.436],[12.4885,45.4407],[12.5115,45.4476],[12.5546,45.4615],[12.574,45.4685],[12.5927,45.4742],[12.6073,45.4813],[12.6281,45.4892],[12.6948,45.5104],[12.726,45.5194],[12.7344,45.5231],[12.7552,45.5305],[12.7656,45.5364],[12.7802,45.5428],[12.8031,45.5546],[12.8115,45.5596],[12.8302,45.5669],[12.851,45.5736],[12.8677,45.5805],[12.8844,45.5854],[12.8927,45.586],[12.9135,45.594],[12.924,45.597],[12.951,45.6067],[12.9573,45.6085],[12.9865,45.6146],[13.001,45.6163],[13.0156,45.6189],[13.0365,45.6206],[13.0615,45.6199],[13.0844,45.6247],[13.0969,45.6266],[13.1094,45.6295],[13.1131,45.6323],[13.1155,45.6385],[13.1164,45.649],[13.1219,45.6586],[13.1294,45.6635],[13.1448,45.6695],[13.155,45.6719],[13.1703,45.6781],[13.1898,45.6916]],[[13.2335,45.6967],[13.2365,45.6963],[13.2448,45.6959],[13.2554,45.6965]],[[13.2886,45.6917],[13.2956,45.6885],[13.3177,45.677],[13.3344,45.6704],[13.3406,45.6687],[13.3594,45.666],[13.3677,45.6675],[13.3802,45.6674],[13.4135,45.6656],[13.424,45.663],[13.4406,45.6577],[13.4469,45.6538],[13.451,45.6534],[13.4638,45.6573],[13.4752,45.6635],[13.4772,45.6698],[13.4816,45.676],[13.4872,45.6865],[13.4934,45.6927],[13.5081,45.699],[13.5177,45.7022],[13.5344,45.7063],[13.5573,45.7113],[13.5719,45.7177],[13.5756,45.724],[13.5704,45.7323],[13.5594,45.7401],[13.5539,45.7469],[13.5483,45.7615],[13.5491,45.7635],[13.5573,45.7698],[13.5635,45.7715],[13.576,45.7717],[13.5927,45.7696],[13.6003,45.7705]]]}},{"type":"Feature","properties":{"depth":-5},"geometry":{"type":"MultiLineString","coordinates":[[[13.5009,45.4781],[13.5014,45.474],[13.5052,45.4717],[13.5137,45.4531]]]}},{"type":"Feature","properties":{"depth":-5},"geometry":{"type":"MultiLineString","coordinates":[[[13.5853,45.4959],[13.5861,45.4885],[13.5823,45.4836],[13.5768,45.4815]]]}},{"type":"Feature","properties":{"depth":-5},"geometry":{"type":"MultiLineString","coordinates":[[[13.7652,45.6281],[13.772,45.6177],[13.7728,45.6115],[13.776,45.6081],[13.7844,45.6086],[13.7873,45.6073],[13.7865,45.6033],[13.7792,45.602]]]}},{"type":"Feature","properties":{"depth":-5},"geometry":{"type":"MultiLineString","coordinates":[[[13.7551,45.651],[13.7482,45.6469],[13.7446,45.6385],[13.7469,45.6347],[13.7556,45.6306]]]}},{"type":"Feature","properties":{"depth":-5},"geometry":{"type":"MultiLineString","coordinates":[[[13.7165,45.701],[13.7228,45.6969],[13.7323,45.6923],[13.7406,45.6857],[13.749,45.6765],[13.7548,45.6719],[13.7573,45.666]]]}},{"type":"Feature","properties":{"depth":-5},"geometry":{"type":"MultiLineString","coordinates":[[[13.6712,45.7385],[13.6757,45.7344],[13.6892,45.7254]]]}},{"type":"Feature","properties":{"depth":-5},"geometry":{"type":"MultiLineString","coordinates":[[[14.7115,44.3212],[14.7151,44.324],[14.7128,44.3281],[14.7052,44.3313],[14.701,44.3302],[14.7052,44.3253],[14.7115,44.3212]]]}},{"type":"Feature","properties":{"depth":-5},"geometry":{"type":"MultiLineString","coordinates":[[[13.7031,44.9906],[13.7073,44.9913],[13.7073,44.9969],[13.7031,44.9962],[13.7031,44.9906]]]}},{"type":"Feature","properties":{"depth":-20},"geometry":{"type":"MultiLineString","coordinates":[[[12.6417,44.2418],[12.6319,44.249],[12.625,44.258],[12.6188,44.2639],[12.6,44.2849],[12.5875,44.2979],[12.5813,44.3032],[12.5687,44.3167],[12.55,44.3411],[12.5458,44.3448],[12.5333,44.3619],[12.5274,44.3719],[12.5208,44.3793],[12.5097,44.3948],[12.5062,44.4019],[12.5009,44.4094],[12.4881,44.4302],[12.4795,44.4531],[12.475,44.4669],[12.4696,44.4781],[12.4667,44.4862],[12.4625,44.4934],[12.4564,44.5115],[12.445,44.5302],[12.4432,44.5385],[12.443,44.5469],[12.4458,44.5844],[12.4459,44.5948],[12.4421,44.6115],[12.4396,44.6161],[12.4333,44.6225],[12.4234,44.6365],[12.4204,44.6427],[12.4171,44.6552],[12.4166,44.6698],[12.4191,44.6802],[12.4185,44.7052],[12.4218,44.7177],[12.429,44.7323],[12.4329,44.7365],[12.4466,44.7448],[12.4604,44.7554],[12.4695,44.7635],[12.4805,44.7719],[12.4893,44.7802],[12.4958,44.785],[12.5026,44.7948],[12.5083,44.801],[12.5167,44.8062],[12.525,44.8156],[12.5312,44.8262],[12.5479,44.8484],[12.555,44.8552],[12.5618,44.8677],[12.575,44.8849],[12.5808,44.8906],[12.5912,44.9073],[12.5981,44.9198],[12.5993,44.926],[12.5989,44.9385],[12.5974,44.949]]]}},{"type":"Feature","properties":{"depth":-10},"geometry":{"type":"MultiLineString","coordinates":[[[12.4935,44.2],[12.4917,44.2017],[12.4812,44.2142],[12.4753,44.224],[12.4688,44.2314],[12.4567,44.2469],[12.4521,44.2549],[12.4354,44.2797],[12.4292,44.2906],[12.4221,44.301],[12.4083,44.3315],[12.4036,44.3385],[12.3926,44.3594],[12.3875,44.3738],[12.3843,44.3802],[12.3771,44.3982],[12.3688,44.414],[12.3649,44.4198],[12.3583,44.4331],[12.3532,44.4406],[12.3422,44.4615],[12.34,44.476],[12.3374,44.4844],[12.3333,44.4895],[12.3176,44.499],[12.3222,44.5052],[12.3304,44.5094],[12.3331,44.5135],[12.3323,44.5219],[12.3319,44.5469],[12.3312,44.5594],[12.3372,44.576],[12.3377,44.5885],[12.3364,44.6052],[12.3353,44.6094],[12.3267,44.6219],[12.3124,44.6448],[12.3042,44.6594],[12.3017,44.6698],[12.303,44.6802],[12.3024,44.6865],[12.2983,44.6969],[12.2987,44.7031],[12.3044,44.7198],[12.3105,44.7302],[12.3146,44.7338],[12.3271,44.7393],[12.3375,44.7422],[12.3498,44.7469],[12.3854,44.7579],[12.4083,44.7653],[12.425,44.7728],[12.433,44.7781],[12.4577,44.799],[12.4646,44.8035],[12.4676,44.8073],[12.4675,44.8135],[12.4697,44.8177],[12.4776,44.826],[12.4896,44.8405],[12.5026,44.851],[12.51,44.8698],[12.5208,44.8877],[12.5331,44.9031],[12.547,44.924],[12.5505,44.9302],[12.5551,44.9344],[12.5626,44.9385],[12.5661,44.9427],[12.5682,44.949]]]}},{"type":"Feature","properties":{"depth":-5},"geometry":{"type":"MultiLineString","coordinates":[[[12.421,44.2],[12.4104,44.2167],[12.4042,44.2245],[12.3976,44.2365],[12.391,44.2448],[12.3812,44.2547],[12.3708,44.2666],[12.3669,44.274],[12.3605,44.2948],[12.357,44.3156],[12.3493,44.3344],[12.3438,44.3436],[12.3333,44.366],[12.3256,44.399],[12.3217,44.4115],[12.316,44.4219],[12.3038,44.4531],[12.3051,44.4615],[12.3003,44.476],[12.296,44.4844],[12.2986,44.4927],[12.2985,44.4969],[12.2939,44.5031],[12.2908,44.5115],[12.2901,44.5177],[12.2903,44.5406],[12.2926,44.5635],[12.2953,44.574],[12.2963,44.5948],[12.2947,44.6135],[12.2889,44.6302],[12.2836,44.6385],[12.2728,44.6469],[12.2604,44.6672],[12.2539,44.6865],[12.2521,44.6942],[12.2507,44.7094],[12.2521,44.7248],[12.2557,44.7365],[12.2667,44.7519],[12.2812,44.7653],[12.2896,44.7694],[12.3063,44.7758],[12.3125,44.777],[12.3354,44.7771],[12.35,44.7752],[12.3792,44.7737],[12.3875,44.7744],[12.4042,44.7776],[12.4104,44.7796],[12.4229,44.7856],[12.4335,44.7927],[12.4479,44.8075],[12.4542,44.8128],[12.4667,44.826],[12.4723,44.8344],[12.4834,44.8469],[12.4975,44.876],[12.5067,44.8885],[12.5142,44.901],[12.5186,44.9135],[12.5282,44.9302],[12.5379,44.9406],[12.5419,44.949]]]}}]}